{
"type": "FeatureCollection",
"name": "segment_bc4fe22d-186a-4164-b6c7-7ba2114ad635",
"features": [
{ "type": "Feature", "properties": { "value": 255.0 }, "geometry": { "type": "Polygon", "coordinates": [ [ [ -8476766.473097851499915, 5319119.500812790356576 ], [ -8476766.473097851499915, 5319119.314188000746071 ], [ -8476766.510423315688968, 5319119.314188000746071 ], [ -8476766.510423315688968, 5319119.239538084715605 ], [ -8476766.547748778015375, 5319119.239538084715605 ], [ -8476766.547748778015375, 5319119.164888168685138 ], [ -8476766.585074242204428, 5319119.164888168685138 ], [ -8476766.585074242204428, 5319119.090238252654672 ], [ -8476766.622399704530835, 5319119.090238252654672 ], [ -8476766.622399704530835, 5319119.052913294173777 ], [ -8476766.659725168719888, 5319119.052913294173777 ], [ -8476766.659725168719888, 5319118.978263378143311 ], [ -8476766.69705063290894, 5319118.978263378143311 ], [ -8476766.69705063290894, 5319118.903613462112844 ], [ -8476766.734376095235348, 5319118.903613462112844 ], [ -8476766.734376095235348, 5319118.828963546082377 ], [ -8476766.7717015594244, 5319118.828963546082377 ], [ -8476766.7717015594244, 5319118.754313630983233 ], [ -8476766.809027021750808, 5319118.754313630983233 ], [ -8476766.809027021750808, 5319118.716988672502339 ], [ -8476766.84635248593986, 5319118.716988672502339 ], [ -8476766.84635248593986, 5319118.679663714952767 ], [ -8476766.883677948266268, 5319118.679663714952767 ], [ -8476766.883677948266268, 5319118.6050137989223 ], [ -8476766.92100341245532, 5319118.6050137989223 ], [ -8476766.92100341245532, 5319118.530363882891834 ], [ -8476766.958328876644373, 5319118.530363882891834 ], [ -8476766.958328876644373, 5319118.381064050830901 ], [ -8476766.99565433897078, 5319118.381064050830901 ], [ -8476766.99565433897078, 5319118.26908917631954 ], [ -8476767.032979803159833, 5319118.26908917631954 ], [ -8476767.032979803159833, 5319117.858514638617635 ], [ -8476766.99565433897078, 5319117.858514638617635 ], [ -8476766.99565433897078, 5319117.821189681068063 ], [ -8476766.958328876644373, 5319117.821189681068063 ], [ -8476766.958328876644373, 5319117.783864722587168 ], [ -8476766.883677948266268, 5319117.783864722587168 ], [ -8476766.883677948266268, 5319117.746539765037596 ], [ -8476766.7717015594244, 5319117.746539765037596 ], [ -8476766.7717015594244, 5319117.709214806556702 ], [ -8476766.547748778015375, 5319117.709214806556702 ], [ -8476766.547748778015375, 5319117.67188984900713 ], [ -8476766.137168681249022, 5319117.67188984900713 ], [ -8476766.137168681249022, 5319117.634564890526235 ], [ -8476764.606824681162834, 5319117.634564890526235 ], [ -8476764.606824681162834, 5319117.597239932976663 ], [ -8476764.009617267176509, 5319117.597239932976663 ], [ -8476764.009617267176509, 5319117.634564890526235 ], [ -8476763.375084389001131, 5319117.634564890526235 ], [ -8476763.375084389001131, 5319117.67188984900713 ], [ -8476763.039155218750238, 5319117.67188984900713 ], [ -8476763.039155218750238, 5319117.709214806556702 ], [ -8476762.889853365719318, 5319117.709214806556702 ], [ -8476762.889853365719318, 5319117.746539765037596 ], [ -8476762.777876975014806, 5319117.746539765037596 ], [ -8476762.777876975014806, 5319117.783864722587168 ], [ -8476762.665900584310293, 5319117.783864722587168 ], [ -8476762.665900584310293, 5319117.821189681068063 ], [ -8476762.591249657794833, 5319117.821189681068063 ], [ -8476762.591249657794833, 5319117.858514638617635 ], [ -8476762.553924195468426, 5319117.858514638617635 ], [ -8476762.553924195468426, 5319118.082464386709034 ], [ -8476762.591249657794833, 5319118.082464386709034 ], [ -8476762.591249657794833, 5319118.343739092350006 ], [ -8476762.628575121983886, 5319118.343739092350006 ], [ -8476762.628575121983886, 5319118.6050137989223 ], [ -8476762.665900584310293, 5319118.6050137989223 ], [ -8476762.665900584310293, 5319118.642338756471872 ], [ -8476762.703226048499346, 5319118.642338756471872 ], [ -8476762.703226048499346, 5319118.679663714952767 ], [ -8476762.740551512688398, 5319118.679663714952767 ], [ -8476762.740551512688398, 5319118.716988672502339 ], [ -8476762.777876975014806, 5319118.716988672502339 ], [ -8476762.777876975014806, 5319118.791638588532805 ], [ -8476762.815202439203858, 5319118.791638588532805 ], [ -8476762.815202439203858, 5319118.866288504563272 ], [ -8476762.852527901530266, 5319118.866288504563272 ], [ -8476762.852527901530266, 5319118.940938420593739 ], [ -8476762.889853365719318, 5319118.940938420593739 ], [ -8476762.889853365719318, 5319119.015588336624205 ], [ -8476762.927178829908371, 5319119.015588336624205 ], [ -8476762.927178829908371, 5319119.052913294173777 ], [ -8476762.964504292234778, 5319119.052913294173777 ], [ -8476762.964504292234778, 5319119.090238252654672 ], [ -8476763.001829756423831, 5319119.090238252654672 ], [ -8476763.001829756423831, 5319119.164888168685138 ], [ -8476763.039155218750238, 5319119.164888168685138 ], [ -8476763.039155218750238, 5319119.20221312623471 ], [ -8476763.076480682939291, 5319119.20221312623471 ], [ -8476763.076480682939291, 5319119.239538084715605 ], [ -8476763.113806145265698, 5319119.239538084715605 ], [ -8476763.113806145265698, 5319119.276863042265177 ], [ -8476763.151131609454751, 5319119.276863042265177 ], [ -8476763.151131609454751, 5319119.500812790356576 ], [ -8476766.473097851499915, 5319119.500812790356576 ] ] ] } },
{ "type": "Feature", "properties": { "value": 255.0 }, "geometry": { "type": "Polygon", "coordinates": [ [ [ -8476726.758804798126221, 5319119.500812790356576 ], [ -8476726.758804798126221, 5319119.314188000746071 ], [ -8476726.870781188830733, 5319119.314188000746071 ], [ -8476726.870781188830733, 5319119.276863042265177 ], [ -8476726.982757577672601, 5319119.276863042265177 ], [ -8476726.982757577672601, 5319119.239538084715605 ], [ -8476727.094733968377113, 5319119.239538084715605 ], [ -8476727.094733968377113, 5319119.20221312623471 ], [ -8476727.206710359081626, 5319119.20221312623471 ], [ -8476727.206710359081626, 5319119.164888168685138 ], [ -8476727.281361285597086, 5319119.164888168685138 ], [ -8476727.281361285597086, 5319119.127563210204244 ], [ -8476727.356012212112546, 5319119.127563210204244 ], [ -8476727.356012212112546, 5319119.090238252654672 ], [ -8476727.393337676301599, 5319119.090238252654672 ], [ -8476727.393337676301599, 5319119.052913294173777 ], [ -8476727.467988602817059, 5319119.052913294173777 ], [ -8476727.467988602817059, 5319119.015588336624205 ], [ -8476727.505314065143466, 5319119.015588336624205 ], [ -8476727.505314065143466, 5319118.978263378143311 ], [ -8476727.542639529332519, 5319118.978263378143311 ], [ -8476727.542639529332519, 5319118.940938420593739 ], [ -8476727.579964993521571, 5319118.940938420593739 ], [ -8476727.579964993521571, 5319118.903613462112844 ], [ -8476727.617290455847979, 5319118.903613462112844 ], [ -8476727.617290455847979, 5319118.866288504563272 ], [ -8476727.654615920037031, 5319118.866288504563272 ], [ -8476727.654615920037031, 5319118.828963546082377 ], [ -8476727.691941382363439, 5319118.828963546082377 ], [ -8476727.691941382363439, 5319118.791638588532805 ], [ -8476727.729266846552491, 5319118.791638588532805 ], [ -8476727.729266846552491, 5319118.754313630983233 ], [ -8476727.766592308878899, 5319118.754313630983233 ], [ -8476727.766592308878899, 5319118.716988672502339 ], [ -8476727.803917773067951, 5319118.716988672502339 ], [ -8476727.803917773067951, 5319118.642338756471872 ], [ -8476727.841243237257004, 5319118.642338756471872 ], [ -8476727.841243237257004, 5319118.6050137989223 ], [ -8476727.878568699583411, 5319118.6050137989223 ], [ -8476727.878568699583411, 5319118.567688840441406 ], [ -8476727.915894163772464, 5319118.567688840441406 ], [ -8476727.915894163772464, 5319118.530363882891834 ], [ -8476727.953219626098871, 5319118.530363882891834 ], [ -8476727.953219626098871, 5319118.493038924410939 ], [ -8476727.990545090287924, 5319118.493038924410939 ], [ -8476727.990545090287924, 5319118.455713966861367 ], [ -8476728.027870552614331, 5319118.455713966861367 ], [ -8476728.027870552614331, 5319118.418389008380473 ], [ -8476728.102521480992436, 5319118.418389008380473 ], [ -8476728.102521480992436, 5319118.381064050830901 ], [ -8476728.139846943318844, 5319118.381064050830901 ], [ -8476728.139846943318844, 5319118.343739092350006 ], [ -8476728.177172407507896, 5319118.343739092350006 ], [ -8476728.177172407507896, 5319118.306414134800434 ], [ -8476728.251823334023356, 5319118.306414134800434 ], [ -8476728.251823334023356, 5319118.26908917631954 ], [ -8476728.289148796349764, 5319118.26908917631954 ], [ -8476728.289148796349764, 5319118.194439260289073 ], [ -8476728.326474260538816, 5319118.194439260289073 ], [ -8476728.326474260538816, 5319118.157114302739501 ], [ -8476728.363799724727869, 5319118.157114302739501 ], [ -8476728.363799724727869, 5319118.119789344258606 ], [ -8476728.401125187054276, 5319118.119789344258606 ], [ -8476728.401125187054276, 5319118.04513942822814 ], [ -8476728.438450651243329, 5319118.04513942822814 ], [ -8476728.438450651243329, 5319117.970489513128996 ], [ -8476728.475776113569736, 5319117.970489513128996 ], [ -8476728.475776113569736, 5319117.895839597098529 ], [ -8476728.513101577758789, 5319117.895839597098529 ], [ -8476728.513101577758789, 5319117.783864722587168 ], [ -8476728.475776113569736, 5319117.783864722587168 ], [ -8476728.475776113569736, 5319117.559914974495769 ], [ -8476728.438450651243329, 5319117.559914974495769 ], [ -8476728.438450651243329, 5319117.522590016946197 ], [ -8476728.401125187054276, 5319117.522590016946197 ], [ -8476728.401125187054276, 5319117.485265058465302 ], [ -8476728.326474260538816, 5319117.485265058465302 ], [ -8476728.326474260538816, 5319117.44794010091573 ], [ -8476728.251823334023356, 5319117.44794010091573 ], [ -8476728.251823334023356, 5319117.410615142434835 ], [ -8476728.139846943318844, 5319117.410615142434835 ], [ -8476728.139846943318844, 5319117.373290184885263 ], [ -8476727.841243237257004, 5319117.373290184885263 ], [ -8476727.841243237257004, 5319117.335965226404369 ], [ -8476725.041833482682705, 5319117.335965226404369 ], [ -8476725.041833482682705, 5319117.298640268854797 ], [ -8476724.780555237084627, 5319117.298640268854797 ], [ -8476724.780555237084627, 5319117.335965226404369 ], [ -8476724.295324213802814, 5319117.335965226404369 ], [ -8476724.295324213802814, 5319117.373290184885263 ], [ -8476724.034045970067382, 5319117.373290184885263 ], [ -8476724.034045970067382, 5319117.410615142434835 ], [ -8476723.847418652847409, 5319117.410615142434835 ], [ -8476723.847418652847409, 5319117.44794010091573 ], [ -8476723.623465873301029, 5319117.44794010091573 ], [ -8476723.623465873301029, 5319117.485265058465302 ], [ -8476723.399513091892004, 5319117.485265058465302 ], [ -8476723.399513091892004, 5319117.597239932976663 ], [ -8476723.436838556081057, 5319117.597239932976663 ], [ -8476723.436838556081057, 5319117.634564890526235 ], [ -8476723.474164018407464, 5319117.634564890526235 ], [ -8476723.474164018407464, 5319117.67188984900713 ], [ -8476723.511489482596517, 5319117.67188984900713 ], [ -8476723.511489482596517, 5319117.709214806556702 ], [ -8476723.548814946785569, 5319117.709214806556702 ], [ -8476723.548814946785569, 5319117.821189681068063 ], [ -8476723.586140409111977, 5319117.821189681068063 ], [ -8476723.586140409111977, 5319117.895839597098529 ], [ -8476723.623465873301029, 5319117.895839597098529 ], [ -8476723.623465873301029, 5319117.933164554648101 ], [ -8476723.660791335627437, 5319117.933164554648101 ], [ -8476723.660791335627437, 5319117.970489513128996 ], [ -8476723.698116799816489, 5319117.970489513128996 ], [ -8476723.698116799816489, 5319118.007814470678568 ], [ -8476723.735442262142897, 5319118.007814470678568 ], [ -8476723.735442262142897, 5319118.04513942822814 ], [ -8476723.772767726331949, 5319118.04513942822814 ], [ -8476723.772767726331949, 5319118.082464386709034 ], [ -8476723.810093190521002, 5319118.082464386709034 ], [ -8476723.810093190521002, 5319118.119789344258606 ], [ -8476723.847418652847409, 5319118.119789344258606 ], [ -8476723.847418652847409, 5319118.157114302739501 ], [ -8476723.884744117036462, 5319118.157114302739501 ], [ -8476723.884744117036462, 5319118.194439260289073 ], [ -8476723.922069579362869, 5319118.194439260289073 ], [ -8476723.922069579362869, 5319118.231764218769968 ], [ -8476723.959395043551922, 5319118.231764218769968 ], [ -8476723.959395043551922, 5319118.26908917631954 ], [ -8476723.996720505878329, 5319118.26908917631954 ], [ -8476723.996720505878329, 5319118.306414134800434 ], [ -8476724.034045970067382, 5319118.306414134800434 ], [ -8476724.034045970067382, 5319118.343739092350006 ], [ -8476724.071371434256434, 5319118.343739092350006 ], [ -8476724.071371434256434, 5319118.381064050830901 ], [ -8476724.108696896582842, 5319118.381064050830901 ], [ -8476724.108696896582842, 5319118.418389008380473 ], [ -8476724.146022360771894, 5319118.418389008380473 ], [ -8476724.146022360771894, 5319118.455713966861367 ], [ -8476724.183347823098302, 5319118.455713966861367 ], [ -8476724.183347823098302, 5319118.493038924410939 ], [ -8476724.220673287287354, 5319118.493038924410939 ], [ -8476724.220673287287354, 5319118.530363882891834 ], [ -8476724.257998749613762, 5319118.530363882891834 ], [ -8476724.257998749613762, 5319118.567688840441406 ], [ -8476724.295324213802814, 5319118.567688840441406 ], [ -8476724.295324213802814, 5319118.6050137989223 ], [ -8476724.332649677991867, 5319118.6050137989223 ], [ -8476724.332649677991867, 5319118.716988672502339 ], [ -8476724.369975140318274, 5319118.716988672502339 ], [ -8476724.369975140318274, 5319118.828963546082377 ], [ -8476724.407300604507327, 5319118.828963546082377 ], [ -8476724.407300604507327, 5319118.903613462112844 ], [ -8476724.444626066833735, 5319118.903613462112844 ], [ -8476724.444626066833735, 5319118.940938420593739 ], [ -8476724.481951531022787, 5319118.940938420593739 ], [ -8476724.481951531022787, 5319118.978263378143311 ], [ -8476724.519276993349195, 5319118.978263378143311 ], [ -8476724.519276993349195, 5319119.015588336624205 ], [ -8476724.5939279217273, 5319119.015588336624205 ], [ -8476724.5939279217273, 5319119.052913294173777 ], [ -8476724.705904310569167, 5319119.052913294173777 ], [ -8476724.705904310569167, 5319119.090238252654672 ], [ -8476724.855206165462732, 5319119.090238252654672 ], [ -8476724.855206165462732, 5319119.127563210204244 ], [ -8476725.079158945009112, 5319119.127563210204244 ], [ -8476725.079158945009112, 5319119.164888168685138 ], [ -8476725.303111726418138, 5319119.164888168685138 ], [ -8476725.303111726418138, 5319119.20221312623471 ], [ -8476725.489739041775465, 5319119.20221312623471 ], [ -8476725.489739041775465, 5319119.239538084715605 ], [ -8476725.676366358995438, 5319119.239538084715605 ], [ -8476725.676366358995438, 5319119.276863042265177 ], [ -8476725.974970066919923, 5319119.276863042265177 ], [ -8476725.974970066919923, 5319119.314188000746071 ], [ -8476726.198922846466303, 5319119.314188000746071 ], [ -8476726.198922846466303, 5319119.500812790356576 ], [ -8476726.758804798126221, 5319119.500812790356576 ] ] ] } },
{ "type": "Feature", "properties": { "value": 255.0 }, "geometry": { "type": "Polygon", "coordinates": [ [ [ -8476746.01874390989542, 5319119.500812790356576 ], [ -8476746.01874390989542, 5319119.314188000746071 ], [ -8476746.056069374084473, 5319119.314188000746071 ], [ -8476746.056069374084473, 5319119.276863042265177 ], [ -8476746.130720300599933, 5319119.276863042265177 ], [ -8476746.130720300599933, 5319119.239538084715605 ], [ -8476746.168045764788985, 5319119.239538084715605 ], [ -8476746.168045764788985, 5319119.20221312623471 ], [ -8476746.242696691304445, 5319119.20221312623471 ], [ -8476746.242696691304445, 5319119.164888168685138 ], [ -8476746.280022153630853, 5319119.164888168685138 ], [ -8476746.280022153630853, 5319119.127563210204244 ], [ -8476746.317347617819905, 5319119.127563210204244 ], [ -8476746.317347617819905, 5319119.090238252654672 ], [ -8476746.354673080146313, 5319119.090238252654672 ], [ -8476746.354673080146313, 5319119.052913294173777 ], [ -8476746.391998544335365, 5319119.052913294173777 ], [ -8476746.391998544335365, 5319119.015588336624205 ], [ -8476746.429324008524418, 5319119.015588336624205 ], [ -8476746.429324008524418, 5319118.978263378143311 ], [ -8476746.466649470850825, 5319118.978263378143311 ], [ -8476746.466649470850825, 5319118.940938420593739 ], [ -8476746.503974935039878, 5319118.940938420593739 ], [ -8476746.503974935039878, 5319118.903613462112844 ], [ -8476746.541300397366285, 5319118.903613462112844 ], [ -8476746.541300397366285, 5319118.866288504563272 ], [ -8476746.578625861555338, 5319118.866288504563272 ], [ -8476746.578625861555338, 5319118.828963546082377 ], [ -8476746.615951323881745, 5319118.828963546082377 ], [ -8476746.615951323881745, 5319118.791638588532805 ], [ -8476746.653276788070798, 5319118.791638588532805 ], [ -8476746.653276788070798, 5319118.754313630983233 ], [ -8476746.727927714586258, 5319118.754313630983233 ], [ -8476746.727927714586258, 5319118.716988672502339 ], [ -8476746.765253178775311, 5319118.716988672502339 ], [ -8476746.765253178775311, 5319118.679663714952767 ], [ -8476746.802578641101718, 5319118.679663714952767 ], [ -8476746.802578641101718, 5319118.642338756471872 ], [ -8476746.839904105290771, 5319118.642338756471872 ], [ -8476746.839904105290771, 5319118.6050137989223 ], [ -8476746.877229569479823, 5319118.6050137989223 ], [ -8476746.877229569479823, 5319118.567688840441406 ], [ -8476746.914555031806231, 5319118.567688840441406 ], [ -8476746.914555031806231, 5319118.530363882891834 ], [ -8476746.989205958321691, 5319118.530363882891834 ], [ -8476746.989205958321691, 5319118.493038924410939 ], [ -8476747.026531422510743, 5319118.493038924410939 ], [ -8476747.026531422510743, 5319118.455713966861367 ], [ -8476747.101182349026203, 5319118.455713966861367 ], [ -8476747.101182349026203, 5319118.418389008380473 ], [ -8476747.175833275541663, 5319118.418389008380473 ], [ -8476747.175833275541663, 5319118.381064050830901 ], [ -8476747.287809666246176, 5319118.381064050830901 ], [ -8476747.287809666246176, 5319118.343739092350006 ], [ -8476747.362460592761636, 5319118.343739092350006 ], [ -8476747.362460592761636, 5319118.306414134800434 ], [ -8476747.399786056950688, 5319118.306414134800434 ], [ -8476747.399786056950688, 5319118.26908917631954 ], [ -8476747.474436983466148, 5319118.26908917631954 ], [ -8476747.474436983466148, 5319118.231764218769968 ], [ -8476747.698389763012528, 5319118.231764218769968 ], [ -8476747.698389763012528, 5319118.194439260289073 ], [ -8476747.959668006747961, 5319118.194439260289073 ], [ -8476747.959668006747961, 5319118.157114302739501 ], [ -8476748.108969859778881, 5319118.157114302739501 ], [ -8476748.108969859778881, 5319118.119789344258606 ], [ -8476748.295597176998854, 5319118.119789344258606 ], [ -8476748.295597176998854, 5319118.082464386709034 ], [ -8476748.444899031892419, 5319118.082464386709034 ], [ -8476748.444899031892419, 5319118.04513942822814 ], [ -8476748.594200884923339, 5319118.04513942822814 ], [ -8476748.594200884923339, 5319118.007814470678568 ], [ -8476748.743502737954259, 5319118.007814470678568 ], [ -8476748.743502737954259, 5319117.970489513128996 ], [ -8476748.855479128658772, 5319117.970489513128996 ], [ -8476748.855479128658772, 5319117.933164554648101 ], [ -8476748.967455519363284, 5319117.933164554648101 ], [ -8476748.967455519363284, 5319117.895839597098529 ], [ -8476749.042106445878744, 5319117.895839597098529 ], [ -8476749.042106445878744, 5319117.858514638617635 ], [ -8476749.079431908205152, 5319117.858514638617635 ], [ -8476749.079431908205152, 5319117.821189681068063 ], [ -8476749.116757372394204, 5319117.821189681068063 ], [ -8476749.116757372394204, 5319117.783864722587168 ], [ -8476749.154082836583257, 5319117.783864722587168 ], [ -8476749.154082836583257, 5319117.746539765037596 ], [ -8476749.191408298909664, 5319117.746539765037596 ], [ -8476749.191408298909664, 5319117.67188984900713 ], [ -8476749.228733763098717, 5319117.67188984900713 ], [ -8476749.228733763098717, 5319117.634564890526235 ], [ -8476749.266059225425124, 5319117.634564890526235 ], [ -8476749.266059225425124, 5319117.522590016946197 ], [ -8476749.303384689614177, 5319117.522590016946197 ], [ -8476749.303384689614177, 5319117.22399035282433 ], [ -8476749.266059225425124, 5319117.22399035282433 ], [ -8476749.266059225425124, 5319117.037365563213825 ], [ -8476749.228733763098717, 5319117.037365563213825 ], [ -8476749.228733763098717, 5319116.925390688702464 ], [ -8476749.191408298909664, 5319116.925390688702464 ], [ -8476749.191408298909664, 5319116.776090856641531 ], [ -8476749.154082836583257, 5319116.776090856641531 ], [ -8476749.154082836583257, 5319116.664115983061492 ], [ -8476749.116757372394204, 5319116.664115983061492 ], [ -8476749.116757372394204, 5319116.552141108550131 ], [ -8476749.079431908205152, 5319116.552141108550131 ], [ -8476749.079431908205152, 5319116.440166234970093 ], [ -8476749.042106445878744, 5319116.440166234970093 ], [ -8476749.042106445878744, 5319116.328191361390054 ], [ -8476749.004780981689692, 5319116.328191361390054 ], [ -8476749.004780981689692, 5319116.216216486878693 ], [ -8476748.967455519363284, 5319116.216216486878693 ], [ -8476748.967455519363284, 5319116.141566570848227 ], [ -8476748.930130055174232, 5319116.141566570848227 ], [ -8476748.930130055174232, 5319116.06691665481776 ], [ -8476748.892804592847824, 5319116.06691665481776 ], [ -8476748.892804592847824, 5319115.992266738787293 ], [ -8476748.855479128658772, 5319115.992266738787293 ], [ -8476748.855479128658772, 5319115.917616822756827 ], [ -8476748.818153664469719, 5319115.917616822756827 ], [ -8476748.818153664469719, 5319115.880291865207255 ], [ -8476748.780828202143312, 5319115.880291865207255 ], [ -8476748.780828202143312, 5319115.805641949176788 ], [ -8476748.743502737954259, 5319115.805641949176788 ], [ -8476748.743502737954259, 5319115.69366707559675 ], [ -8476748.706177275627851, 5319115.69366707559675 ], [ -8476748.706177275627851, 5319115.581692201085389 ], [ -8476748.668851811438799, 5319115.581692201085389 ], [ -8476748.668851811438799, 5319115.507042285054922 ], [ -8476748.631526349112391, 5319115.507042285054922 ], [ -8476748.631526349112391, 5319115.395067411474884 ], [ -8476748.594200884923339, 5319115.395067411474884 ], [ -8476748.594200884923339, 5319115.320417495444417 ], [ -8476748.556875420734286, 5319115.320417495444417 ], [ -8476748.556875420734286, 5319115.24576757941395 ], [ -8476748.519549958407879, 5319115.24576757941395 ], [ -8476748.519549958407879, 5319115.208442620933056 ], [ -8476748.482224494218826, 5319115.208442620933056 ], [ -8476748.482224494218826, 5319115.133792704902589 ], [ -8476748.444899031892419, 5319115.133792704902589 ], [ -8476748.444899031892419, 5319115.059142788872123 ], [ -8476748.407573567703366, 5319115.059142788872123 ], [ -8476748.407573567703366, 5319115.021817831322551 ], [ -8476748.370248103514314, 5319115.021817831322551 ], [ -8476748.370248103514314, 5319114.984492873772979 ], [ -8476748.332922641187906, 5319114.984492873772979 ], [ -8476748.332922641187906, 5319114.909842957742512 ], [ -8476748.295597176998854, 5319114.909842957742512 ], [ -8476748.295597176998854, 5319114.835193041712046 ], [ -8476748.258271714672446, 5319114.835193041712046 ], [ -8476748.258271714672446, 5319114.760543125681579 ], [ -8476748.220946250483394, 5319114.760543125681579 ], [ -8476748.220946250483394, 5319114.723218167200685 ], [ -8476748.183620788156986, 5319114.723218167200685 ], [ -8476748.183620788156986, 5319114.648568251170218 ], [ -8476748.146295323967934, 5319114.648568251170218 ], [ -8476748.146295323967934, 5319114.573918335139751 ], [ -8476748.108969859778881, 5319114.573918335139751 ], [ -8476748.108969859778881, 5319114.536593377590179 ], [ -8476748.071644397452474, 5319114.536593377590179 ], [ -8476748.071644397452474, 5319114.499268419109285 ], [ -8476747.996993470937014, 5319114.499268419109285 ], [ -8476747.996993470937014, 5319114.461943461559713 ], [ -8476747.922342544421554, 5319114.461943461559713 ], [ -8476747.922342544421554, 5319114.424618503078818 ], [ -8476747.735715227201581, 5319114.424618503078818 ], [ -8476747.735715227201581, 5319114.387293545529246 ], [ -8476747.586413372308016, 5319114.387293545529246 ], [ -8476747.586413372308016, 5319114.349968587048352 ], [ -8476746.989205958321691, 5319114.349968587048352 ], [ -8476746.989205958321691, 5319114.31264362949878 ], [ -8476746.877229569479823, 5319114.31264362949878 ], [ -8476746.877229569479823, 5319114.275318671949208 ], [ -8476746.727927714586258, 5319114.275318671949208 ], [ -8476746.727927714586258, 5319114.237993713468313 ], [ -8476746.354673080146313, 5319114.237993713468313 ], [ -8476746.354673080146313, 5319114.200668755918741 ], [ -8476744.89898000843823, 5319114.200668755918741 ], [ -8476744.89898000843823, 5319114.163343797437847 ], [ -8476744.339098056778312, 5319114.163343797437847 ], [ -8476744.339098056778312, 5319114.200668755918741 ], [ -8476744.152470741420984, 5319114.200668755918741 ], [ -8476744.152470741420984, 5319114.163343797437847 ], [ -8476742.659452205523849, 5319114.163343797437847 ], [ -8476742.659452205523849, 5319114.200668755918741 ], [ -8476742.286197571083903, 5319114.200668755918741 ], [ -8476742.286197571083903, 5319114.237993713468313 ], [ -8476742.136895718052983, 5319114.237993713468313 ], [ -8476742.136895718052983, 5319114.275318671949208 ], [ -8476742.062244789674878, 5319114.275318671949208 ], [ -8476742.062244789674878, 5319114.31264362949878 ], [ -8476742.024919327348471, 5319114.31264362949878 ], [ -8476742.024919327348471, 5319114.349968587048352 ], [ -8476741.987593863159418, 5319114.349968587048352 ], [ -8476741.987593863159418, 5319114.387293545529246 ], [ -8476741.950268400833011, 5319114.387293545529246 ], [ -8476741.950268400833011, 5319114.424618503078818 ], [ -8476741.912942936643958, 5319114.424618503078818 ], [ -8476741.912942936643958, 5319114.499268419109285 ], [ -8476741.875617474317551, 5319114.499268419109285 ], [ -8476741.875617474317551, 5319114.611243293620646 ], [ -8476741.838292010128498, 5319114.611243293620646 ], [ -8476741.838292010128498, 5319114.723218167200685 ], [ -8476741.800966545939445, 5319114.723218167200685 ], [ -8476741.800966545939445, 5319114.835193041712046 ], [ -8476741.763641083613038, 5319114.835193041712046 ], [ -8476741.763641083613038, 5319114.984492873772979 ], [ -8476741.726315619423985, 5319114.984492873772979 ], [ -8476741.726315619423985, 5319115.171117663383484 ], [ -8476741.688990157097578, 5319115.171117663383484 ], [ -8476741.688990157097578, 5319115.320417495444417 ], [ -8476741.651664692908525, 5319115.320417495444417 ], [ -8476741.651664692908525, 5319115.768316991627216 ], [ -8476741.614339230582118, 5319115.768316991627216 ], [ -8476741.614339230582118, 5319116.06691665481776 ], [ -8476741.577013766393065, 5319116.06691665481776 ], [ -8476741.577013766393065, 5319116.552141108550131 ], [ -8476741.539688302204013, 5319116.552141108550131 ], [ -8476741.539688302204013, 5319116.701440940611064 ], [ -8476741.502362839877605, 5319116.701440940611064 ], [ -8476741.502362839877605, 5319116.962715647183359 ], [ -8476741.539688302204013, 5319116.962715647183359 ], [ -8476741.539688302204013, 5319117.186665395274758 ], [ -8476741.577013766393065, 5319117.186665395274758 ], [ -8476741.577013766393065, 5319117.373290184885263 ], [ -8476741.614339230582118, 5319117.373290184885263 ], [ -8476741.614339230582118, 5319117.485265058465302 ], [ -8476741.651664692908525, 5319117.485265058465302 ], [ -8476741.651664692908525, 5319117.634564890526235 ], [ -8476741.688990157097578, 5319117.634564890526235 ], [ -8476741.688990157097578, 5319117.783864722587168 ], [ -8476741.726315619423985, 5319117.783864722587168 ], [ -8476741.726315619423985, 5319118.381064050830901 ], [ -8476741.763641083613038, 5319118.381064050830901 ], [ -8476741.763641083613038, 5319118.6050137989223 ], [ -8476741.800966545939445, 5319118.6050137989223 ], [ -8476741.800966545939445, 5319118.679663714952767 ], [ -8476741.838292010128498, 5319118.679663714952767 ], [ -8476741.838292010128498, 5319118.754313630983233 ], [ -8476741.875617474317551, 5319118.754313630983233 ], [ -8476741.875617474317551, 5319118.828963546082377 ], [ -8476741.912942936643958, 5319118.828963546082377 ], [ -8476741.912942936643958, 5319118.903613462112844 ], [ -8476741.950268400833011, 5319118.903613462112844 ], [ -8476741.950268400833011, 5319118.978263378143311 ], [ -8476741.987593863159418, 5319118.978263378143311 ], [ -8476741.987593863159418, 5319119.015588336624205 ], [ -8476742.024919327348471, 5319119.015588336624205 ], [ -8476742.024919327348471, 5319119.090238252654672 ], [ -8476742.062244789674878, 5319119.090238252654672 ], [ -8476742.062244789674878, 5319119.127563210204244 ], [ -8476742.099570253863931, 5319119.127563210204244 ], [ -8476742.099570253863931, 5319119.164888168685138 ], [ -8476742.136895718052983, 5319119.164888168685138 ], [ -8476742.136895718052983, 5319119.20221312623471 ], [ -8476742.174221180379391, 5319119.20221312623471 ], [ -8476742.174221180379391, 5319119.239538084715605 ], [ -8476742.211546644568443, 5319119.239538084715605 ], [ -8476742.211546644568443, 5319119.276863042265177 ], [ -8476742.248872106894851, 5319119.276863042265177 ], [ -8476742.248872106894851, 5319119.500812790356576 ], [ -8476746.01874390989542, 5319119.500812790356576 ] ] ] } },
{ "type": "Feature", "properties": { "value": 255.0 }, "geometry": { "type": "Polygon", "coordinates": [ [ [ -8476817.011775290593505, 5319118.791638588532805 ], [ -8476817.011775290593505, 5319118.754313630983233 ], [ -8476818.019562801346183, 5319118.754313630983233 ], [ -8476818.019562801346183, 5319118.716988672502339 ], [ -8476818.206190118566155, 5319118.716988672502339 ], [ -8476818.206190118566155, 5319118.679663714952767 ], [ -8476818.915373923256993, 5319118.679663714952767 ], [ -8476818.915373923256993, 5319118.642338756471872 ], [ -8476819.139326704666018, 5319118.642338756471872 ], [ -8476819.139326704666018, 5319118.6050137989223 ], [ -8476819.363279484212399, 5319118.6050137989223 ], [ -8476819.363279484212399, 5319118.567688840441406 ], [ -8476819.549906801432371, 5319118.567688840441406 ], [ -8476819.549906801432371, 5319118.530363882891834 ], [ -8476819.699208654463291, 5319118.530363882891834 ], [ -8476819.699208654463291, 5319118.493038924410939 ], [ -8476819.811185045167804, 5319118.493038924410939 ], [ -8476819.811185045167804, 5319118.455713966861367 ], [ -8476819.885835971683264, 5319118.455713966861367 ], [ -8476819.885835971683264, 5319118.418389008380473 ], [ -8476819.997812362387776, 5319118.418389008380473 ], [ -8476819.997812362387776, 5319118.381064050830901 ], [ -8476820.072463288903236, 5319118.381064050830901 ], [ -8476820.072463288903236, 5319118.343739092350006 ], [ -8476820.147114215418696, 5319118.343739092350006 ], [ -8476820.147114215418696, 5319118.306414134800434 ], [ -8476820.221765141934156, 5319118.306414134800434 ], [ -8476820.221765141934156, 5319118.26908917631954 ], [ -8476820.408392459154129, 5319118.26908917631954 ], [ -8476820.408392459154129, 5319118.231764218769968 ], [ -8476820.632345238700509, 5319118.231764218769968 ], [ -8476820.632345238700509, 5319118.194439260289073 ], [ -8476820.893623484298587, 5319118.194439260289073 ], [ -8476820.893623484298587, 5319118.157114302739501 ], [ -8476821.154901728034019, 5319118.157114302739501 ], [ -8476821.154901728034019, 5319118.119789344258606 ], [ -8476821.266878116875887, 5319118.119789344258606 ], [ -8476821.266878116875887, 5319118.082464386709034 ], [ -8476821.416179971769452, 5319118.082464386709034 ], [ -8476821.416179971769452, 5319118.04513942822814 ], [ -8476821.565481824800372, 5319118.04513942822814 ], [ -8476821.565481824800372, 5319118.007814470678568 ], [ -8476821.677458215504885, 5319118.007814470678568 ], [ -8476821.677458215504885, 5319117.970489513128996 ], [ -8476821.752109142020345, 5319117.970489513128996 ], [ -8476821.752109142020345, 5319117.933164554648101 ], [ -8476821.789434604346752, 5319117.933164554648101 ], [ -8476821.789434604346752, 5319117.895839597098529 ], [ -8476821.864085530862212, 5319117.895839597098529 ], [ -8476821.864085530862212, 5319117.858514638617635 ], [ -8476821.901410995051265, 5319117.858514638617635 ], [ -8476821.901410995051265, 5319117.821189681068063 ], [ -8476821.976061921566725, 5319117.821189681068063 ], [ -8476821.976061921566725, 5319117.783864722587168 ], [ -8476822.013387385755777, 5319117.783864722587168 ], [ -8476822.013387385755777, 5319117.746539765037596 ], [ -8476822.088038312271237, 5319117.746539765037596 ], [ -8476822.088038312271237, 5319117.709214806556702 ], [ -8476822.20001470297575, 5319117.709214806556702 ], [ -8476822.20001470297575, 5319117.67188984900713 ], [ -8476822.27466562949121, 5319117.67188984900713 ], [ -8476822.27466562949121, 5319117.634564890526235 ], [ -8476822.386642018333077, 5319117.634564890526235 ], [ -8476822.386642018333077, 5319117.597239932976663 ], [ -8476822.461292946711183, 5319117.597239932976663 ], [ -8476822.461292946711183, 5319117.559914974495769 ], [ -8476822.57326933555305, 5319117.559914974495769 ], [ -8476822.57326933555305, 5319117.522590016946197 ], [ -8476822.647920263931155, 5319117.522590016946197 ], [ -8476822.647920263931155, 5319117.485265058465302 ], [ -8476822.759896652773023, 5319117.485265058465302 ], [ -8476822.759896652773023, 5319117.44794010091573 ], [ -8476822.871873043477535, 5319117.44794010091573 ], [ -8476822.871873043477535, 5319117.410615142434835 ], [ -8476822.983849434182048, 5319117.410615142434835 ], [ -8476822.983849434182048, 5319117.373290184885263 ], [ -8476823.095825823023915, 5319117.373290184885263 ], [ -8476823.095825823023915, 5319117.335965226404369 ], [ -8476823.207802213728428, 5319117.335965226404369 ], [ -8476823.207802213728428, 5319117.298640268854797 ], [ -8476823.357104066759348, 5319117.298640268854797 ], [ -8476823.357104066759348, 5319117.261315311305225 ], [ -8476823.469080457463861, 5319117.261315311305225 ], [ -8476823.469080457463861, 5319117.22399035282433 ], [ -8476823.581056848168373, 5319117.22399035282433 ], [ -8476823.581056848168373, 5319117.186665395274758 ], [ -8476823.618382310494781, 5319117.186665395274758 ], [ -8476823.618382310494781, 5319117.149340436793864 ], [ -8476823.655707774683833, 5319117.149340436793864 ], [ -8476823.655707774683833, 5319117.112015479244292 ], [ -8476823.693033238872886, 5319117.112015479244292 ], [ -8476823.693033238872886, 5319117.074690520763397 ], [ -8476823.730358701199293, 5319117.074690520763397 ], [ -8476823.730358701199293, 5319117.037365563213825 ], [ -8476823.767684165388346, 5319117.037365563213825 ], [ -8476823.767684165388346, 5319117.000040604732931 ], [ -8476823.805009627714753, 5319117.000040604732931 ], [ -8476823.805009627714753, 5319116.962715647183359 ], [ -8476823.842335091903806, 5319116.962715647183359 ], [ -8476823.842335091903806, 5319116.925390688702464 ], [ -8476823.879660554230213, 5319116.925390688702464 ], [ -8476823.879660554230213, 5319116.888065731152892 ], [ -8476823.916986018419266, 5319116.888065731152892 ], [ -8476823.916986018419266, 5319116.850740772671998 ], [ -8476823.954311482608318, 5319116.850740772671998 ], [ -8476823.954311482608318, 5319116.813415815122426 ], [ -8476824.028962409123778, 5319116.813415815122426 ], [ -8476824.028962409123778, 5319116.776090856641531 ], [ -8476824.103613335639238, 5319116.776090856641531 ], [ -8476824.103613335639238, 5319116.738765899091959 ], [ -8476824.178264262154698, 5319116.738765899091959 ], [ -8476824.178264262154698, 5319116.701440940611064 ], [ -8476824.252915188670158, 5319116.701440940611064 ], [ -8476824.252915188670158, 5319116.664115983061492 ], [ -8476824.327566115185618, 5319116.664115983061492 ], [ -8476824.327566115185618, 5319116.626791024580598 ], [ -8476824.439542505890131, 5319116.626791024580598 ], [ -8476824.439542505890131, 5319116.589466067031026 ], [ -8476824.514193432405591, 5319116.589466067031026 ], [ -8476824.514193432405591, 5319116.552141108550131 ], [ -8476824.626169823110104, 5319116.552141108550131 ], [ -8476824.626169823110104, 5319116.514816151000559 ], [ -8476824.700820749625564, 5319116.514816151000559 ], [ -8476824.700820749625564, 5319116.477491193450987 ], [ -8476824.775471676141024, 5319116.477491193450987 ], [ -8476824.775471676141024, 5319116.440166234970093 ], [ -8476824.812797140330076, 5319116.440166234970093 ], [ -8476824.812797140330076, 5319116.402841277420521 ], [ -8476824.850122602656484, 5319116.402841277420521 ], [ -8476824.850122602656484, 5319116.365516318939626 ], [ -8476824.887448066845536, 5319116.365516318939626 ], [ -8476824.887448066845536, 5319116.328191361390054 ], [ -8476824.924773531034589, 5319116.328191361390054 ], [ -8476824.924773531034589, 5319116.253541445359588 ], [ -8476824.962098993360996, 5319116.253541445359588 ], [ -8476824.962098993360996, 5319116.216216486878693 ], [ -8476824.999424457550049, 5319116.216216486878693 ], [ -8476824.999424457550049, 5319116.178891529329121 ], [ -8476825.036749919876456, 5319116.178891529329121 ], [ -8476825.036749919876456, 5319116.141566570848227 ], [ -8476825.074075384065509, 5319116.141566570848227 ], [ -8476825.074075384065509, 5319116.104241613298655 ], [ -8476825.111400846391916, 5319116.104241613298655 ], [ -8476825.111400846391916, 5319116.06691665481776 ], [ -8476825.260702701285481, 5319116.06691665481776 ], [ -8476825.260702701285481, 5319116.029591697268188 ], [ -8476825.372679090127349, 5319116.029591697268188 ], [ -8476825.372679090127349, 5319115.992266738787293 ], [ -8476825.484655480831861, 5319115.992266738787293 ], [ -8476825.484655480831861, 5319115.954941781237721 ], [ -8476825.521980945020914, 5319115.954941781237721 ], [ -8476825.521980945020914, 5319115.917616822756827 ], [ -8476825.559306407347322, 5319115.917616822756827 ], [ -8476825.559306407347322, 5319115.880291865207255 ], [ -8476825.633957333862782, 5319115.880291865207255 ], [ -8476825.633957333862782, 5319115.84296690672636 ], [ -8476825.671282798051834, 5319115.84296690672636 ], [ -8476825.671282798051834, 5319115.805641949176788 ], [ -8476825.745933724567294, 5319115.805641949176788 ], [ -8476825.745933724567294, 5319115.768316991627216 ], [ -8476825.783259188756347, 5319115.768316991627216 ], [ -8476825.783259188756347, 5319115.730992033146322 ], [ -8476825.820584651082754, 5319115.730992033146322 ], [ -8476825.820584651082754, 5319115.69366707559675 ], [ -8476825.857910115271807, 5319115.69366707559675 ], [ -8476825.857910115271807, 5319115.656342117115855 ], [ -8476825.895235577598214, 5319115.656342117115855 ], [ -8476825.895235577598214, 5319115.619017159566283 ], [ -8476825.932561041787267, 5319115.619017159566283 ], [ -8476825.932561041787267, 5319115.581692201085389 ], [ -8476825.969886505976319, 5319115.581692201085389 ], [ -8476825.969886505976319, 5319115.544367243535817 ], [ -8476826.007211968302727, 5319115.544367243535817 ], [ -8476826.007211968302727, 5319115.507042285054922 ], [ -8476826.044537432491779, 5319115.507042285054922 ], [ -8476826.044537432491779, 5319115.46971732750535 ], [ -8476826.081862894818187, 5319115.46971732750535 ], [ -8476826.081862894818187, 5319115.432392369024456 ], [ -8476826.119188359007239, 5319115.432392369024456 ], [ -8476826.119188359007239, 5319115.395067411474884 ], [ -8476826.156513823196292, 5319115.395067411474884 ], [ -8476826.156513823196292, 5319115.357742452993989 ], [ -8476826.231164749711752, 5319115.357742452993989 ], [ -8476826.231164749711752, 5319115.320417495444417 ], [ -8476826.305815676227212, 5319115.320417495444417 ], [ -8476826.305815676227212, 5319115.283092536963522 ], [ -8476826.343141138553619, 5319115.283092536963522 ], [ -8476826.343141138553619, 5319115.24576757941395 ], [ -8476826.417792066931725, 5319115.24576757941395 ], [ -8476826.417792066931725, 5319115.208442620933056 ], [ -8476826.492442993447185, 5319115.208442620933056 ], [ -8476826.492442993447185, 5319115.171117663383484 ], [ -8476826.567093919962645, 5319115.171117663383484 ], [ -8476826.567093919962645, 5319115.133792704902589 ], [ -8476826.604419382289052, 5319115.133792704902589 ], [ -8476826.604419382289052, 5319115.096467747353017 ], [ -8476826.679070310667157, 5319115.096467747353017 ], [ -8476826.679070310667157, 5319115.059142788872123 ], [ -8476826.716395772993565, 5319115.059142788872123 ], [ -8476826.716395772993565, 5319115.021817831322551 ], [ -8476826.791046699509025, 5319115.021817831322551 ], [ -8476826.791046699509025, 5319114.947167915292084 ], [ -8476826.828372163698077, 5319114.947167915292084 ], [ -8476826.828372163698077, 5319114.797868083231151 ], [ -8476826.865697626024485, 5319114.797868083231151 ], [ -8476826.865697626024485, 5319114.685893209651113 ], [ -8476826.903023090213537, 5319114.685893209651113 ], [ -8476826.903023090213537, 5319114.648568251170218 ], [ -8476826.94034855440259, 5319114.648568251170218 ], [ -8476826.94034855440259, 5319114.611243293620646 ], [ -8476827.08965040743351, 5319114.611243293620646 ], [ -8476827.08965040743351, 5319114.573918335139751 ], [ -8476827.201626798138022, 5319114.573918335139751 ], [ -8476827.201626798138022, 5319114.536593377590179 ], [ -8476827.31360318697989, 5319114.536593377590179 ], [ -8476827.31360318697989, 5319114.499268419109285 ], [ -8476827.350928651168942, 5319114.499268419109285 ], [ -8476827.350928651168942, 5319114.461943461559713 ], [ -8476827.38825411349535, 5319114.461943461559713 ], [ -8476827.38825411349535, 5319114.424618503078818 ], [ -8476827.425579577684402, 5319114.424618503078818 ], [ -8476827.425579577684402, 5319114.387293545529246 ], [ -8476827.462905041873455, 5319114.387293545529246 ], [ -8476827.462905041873455, 5319114.349968587048352 ], [ -8476827.500230504199862, 5319114.349968587048352 ], [ -8476827.500230504199862, 5319114.31264362949878 ], [ -8476827.537555968388915, 5319114.31264362949878 ], [ -8476827.537555968388915, 5319114.275318671949208 ], [ -8476827.574881430715322, 5319114.275318671949208 ], [ -8476827.574881430715322, 5319114.237993713468313 ], [ -8476827.612206894904375, 5319114.237993713468313 ], [ -8476827.612206894904375, 5319114.163343797437847 ], [ -8476827.649532357230783, 5319114.163343797437847 ], [ -8476827.649532357230783, 5319114.08869388140738 ], [ -8476827.686857821419835, 5319114.08869388140738 ], [ -8476827.686857821419835, 5319114.051368923857808 ], [ -8476827.724183285608888, 5319114.051368923857808 ], [ -8476827.724183285608888, 5319113.976719007827342 ], [ -8476827.761508747935295, 5319113.976719007827342 ], [ -8476827.761508747935295, 5319113.939394049346447 ], [ -8476827.798834212124348, 5319113.939394049346447 ], [ -8476827.798834212124348, 5319113.902069091796875 ], [ -8476827.836159674450755, 5319113.902069091796875 ], [ -8476827.836159674450755, 5319113.86474413331598 ], [ -8476827.873485138639808, 5319113.86474413331598 ], [ -8476827.873485138639808, 5319113.827419175766408 ], [ -8476827.91081060282886, 5319113.827419175766408 ], [ -8476827.91081060282886, 5319113.790094217285514 ], [ -8476827.948136065155268, 5319113.790094217285514 ], [ -8476827.948136065155268, 5319113.752769259735942 ], [ -8476827.98546152934432, 5319113.752769259735942 ], [ -8476827.98546152934432, 5319113.715444301255047 ], [ -8476828.022786991670728, 5319113.715444301255047 ], [ -8476828.022786991670728, 5319113.640794385224581 ], [ -8476828.06011245585978, 5319113.640794385224581 ], [ -8476828.06011245585978, 5319113.603469427675009 ], [ -8476828.097437918186188, 5319113.603469427675009 ], [ -8476828.097437918186188, 5319113.566144469194114 ], [ -8476828.13476338237524, 5319113.566144469194114 ], [ -8476828.13476338237524, 5319113.49149455409497 ], [ -8476828.172088846564293, 5319113.49149455409497 ], [ -8476828.172088846564293, 5319113.454169595614076 ], [ -8476828.2094143088907, 5319113.454169595614076 ], [ -8476828.2094143088907, 5319113.379519679583609 ], [ -8476828.246739773079753, 5319113.379519679583609 ], [ -8476828.246739773079753, 5319113.342194722034037 ], [ -8476828.28406523540616, 5319113.342194722034037 ], [ -8476828.28406523540616, 5319113.304869763553143 ], [ -8476828.321390699595213, 5319113.304869763553143 ], [ -8476828.321390699595213, 5319113.230219847522676 ], [ -8476828.35871616192162, 5319113.230219847522676 ], [ -8476828.35871616192162, 5319113.192894889973104 ], [ -8476828.396041626110673, 5319113.192894889973104 ], [ -8476828.396041626110673, 5319113.155569931492209 ], [ -8476828.433367090299726, 5319113.155569931492209 ], [ -8476828.433367090299726, 5319113.118244973942637 ], [ -8476828.508018016815186, 5319113.118244973942637 ], [ -8476828.508018016815186, 5319113.080920015461743 ], [ -8476828.545343479141593, 5319113.080920015461743 ], [ -8476828.545343479141593, 5319113.043595057912171 ], [ -8476828.582668943330646, 5319113.043595057912171 ], [ -8476828.582668943330646, 5319113.006270099431276 ], [ -8476828.619994405657053, 5319113.006270099431276 ], [ -8476828.619994405657053, 5319112.968945141881704 ], [ -8476828.657319869846106, 5319112.968945141881704 ], [ -8476828.657319869846106, 5319112.93162018340081 ], [ -8476828.694645334035158, 5319112.93162018340081 ], [ -8476828.694645334035158, 5319112.894295225851238 ], [ -8476828.731970796361566, 5319112.894295225851238 ], [ -8476828.731970796361566, 5319112.856970267370343 ], [ -8476828.769296260550618, 5319112.856970267370343 ], [ -8476828.769296260550618, 5319112.782320352271199 ], [ -8476828.806621722877026, 5319112.782320352271199 ], [ -8476828.806621722877026, 5319112.707670436240733 ], [ -8476828.843947187066078, 5319112.707670436240733 ], [ -8476828.843947187066078, 5319112.633020520210266 ], [ -8476828.881272649392486, 5319112.633020520210266 ], [ -8476828.881272649392486, 5319112.595695561729372 ], [ -8476828.918598113581538, 5319112.595695561729372 ], [ -8476828.918598113581538, 5319112.521045645698905 ], [ -8476828.955923577770591, 5319112.521045645698905 ], [ -8476828.955923577770591, 5319112.483720688149333 ], [ -8476828.993249040096998, 5319112.483720688149333 ], [ -8476828.993249040096998, 5319112.446395729668438 ], [ -8476829.030574504286051, 5319112.446395729668438 ], [ -8476829.030574504286051, 5319112.409070772118866 ], [ -8476829.105225430801511, 5319112.409070772118866 ], [ -8476829.105225430801511, 5319112.371745813637972 ], [ -8476829.142550893127918, 5319112.371745813637972 ], [ -8476829.142550893127918, 5319112.3344208560884 ], [ -8476829.179876357316971, 5319112.3344208560884 ], [ -8476829.179876357316971, 5319112.297095897607505 ], [ -8476829.217201821506023, 5319112.297095897607505 ], [ -8476829.217201821506023, 5319112.259770940057933 ], [ -8476829.254527283832431, 5319112.259770940057933 ], [ -8476829.254527283832431, 5319112.185121024027467 ], [ -8476829.291852748021483, 5319112.185121024027467 ], [ -8476829.291852748021483, 5319112.147796065546572 ], [ -8476829.329178210347891, 5319112.147796065546572 ], [ -8476829.329178210347891, 5319112.035821191966534 ], [ -8476829.366503674536943, 5319112.035821191966534 ], [ -8476829.366503674536943, 5319111.923846318386495 ], [ -8476829.403829136863351, 5319111.923846318386495 ], [ -8476829.403829136863351, 5319111.849196402356029 ], [ -8476829.441154601052403, 5319111.849196402356029 ], [ -8476829.441154601052403, 5319111.737221527844667 ], [ -8476829.478480065241456, 5319111.737221527844667 ], [ -8476829.478480065241456, 5319111.699896570295095 ], [ -8476829.515805527567863, 5319111.699896570295095 ], [ -8476829.515805527567863, 5319111.625246654264629 ], [ -8476829.553130991756916, 5319111.625246654264629 ], [ -8476829.553130991756916, 5319111.587921695783734 ], [ -8476829.590456454083323, 5319111.587921695783734 ], [ -8476829.590456454083323, 5319111.513271779753268 ], [ -8476829.627781918272376, 5319111.513271779753268 ], [ -8476829.627781918272376, 5319111.438621863722801 ], [ -8476829.665107380598783, 5319111.438621863722801 ], [ -8476829.665107380598783, 5319111.363971947692335 ], [ -8476829.702432844787836, 5319111.363971947692335 ], [ -8476829.702432844787836, 5319111.289322032593191 ], [ -8476829.739758308976889, 5319111.289322032593191 ], [ -8476829.739758308976889, 5319111.214672116562724 ], [ -8476829.777083771303296, 5319111.214672116562724 ], [ -8476829.777083771303296, 5319111.140022200532258 ], [ -8476829.814409235492349, 5319111.140022200532258 ], [ -8476829.814409235492349, 5319111.065372284501791 ], [ -8476829.851734697818756, 5319111.065372284501791 ], [ -8476829.851734697818756, 5319111.028047326020896 ], [ -8476829.889060162007809, 5319111.028047326020896 ], [ -8476829.889060162007809, 5319110.990722368471324 ], [ -8476829.926385626196861, 5319110.990722368471324 ], [ -8476829.926385626196861, 5319110.95339740999043 ], [ -8476829.963711088523269, 5319110.95339740999043 ], [ -8476829.963711088523269, 5319110.878747493959963 ], [ -8476830.001036552712321, 5319110.878747493959963 ], [ -8476830.001036552712321, 5319110.804097577929497 ], [ -8476830.038362015038729, 5319110.804097577929497 ], [ -8476830.038362015038729, 5319110.72944766189903 ], [ -8476830.075687479227781, 5319110.72944766189903 ], [ -8476830.075687479227781, 5319110.654797745868564 ], [ -8476830.113012941554189, 5319110.654797745868564 ], [ -8476830.113012941554189, 5319110.580147829838097 ], [ -8476830.150338405743241, 5319110.580147829838097 ], [ -8476830.150338405743241, 5319110.505497914738953 ], [ -8476830.187663869932294, 5319110.505497914738953 ], [ -8476830.187663869932294, 5319110.430847998708487 ], [ -8476830.224989332258701, 5319110.430847998708487 ], [ -8476830.224989332258701, 5319110.35619808267802 ], [ -8476830.262314796447754, 5319110.35619808267802 ], [ -8476830.262314796447754, 5319110.318873124197125 ], [ -8476830.299640258774161, 5319110.318873124197125 ], [ -8476830.299640258774161, 5319110.244223208166659 ], [ -8476830.336965722963214, 5319110.244223208166659 ], [ -8476830.336965722963214, 5319110.169573292136192 ], [ -8476830.374291185289621, 5319110.169573292136192 ], [ -8476830.374291185289621, 5319110.094923376105726 ], [ -8476830.411616649478674, 5319110.094923376105726 ], [ -8476830.411616649478674, 5319110.057598418556154 ], [ -8476830.448942113667727, 5319110.057598418556154 ], [ -8476830.448942113667727, 5319109.982948502525687 ], [ -8476830.486267575994134, 5319109.982948502525687 ], [ -8476830.486267575994134, 5319109.908298586495221 ], [ -8476830.523593040183187, 5319109.908298586495221 ], [ -8476830.523593040183187, 5319109.796323712915182 ], [ -8476830.560918502509594, 5319109.796323712915182 ], [ -8476830.560918502509594, 5319109.684348838403821 ], [ -8476830.598243966698647, 5319109.684348838403821 ], [ -8476830.598243966698647, 5319109.572373964823782 ], [ -8476830.635569429025054, 5319109.572373964823782 ], [ -8476830.635569429025054, 5319109.535049006342888 ], [ -8476830.672894893214107, 5319109.535049006342888 ], [ -8476830.672894893214107, 5319109.460399090312421 ], [ -8476830.710220357403159, 5319109.460399090312421 ], [ -8476830.710220357403159, 5319109.385749174281955 ], [ -8476830.747545819729567, 5319109.385749174281955 ], [ -8476830.747545819729567, 5319109.311099258251488 ], [ -8476830.784871283918619, 5319109.311099258251488 ], [ -8476830.784871283918619, 5319109.273774300701916 ], [ -8476830.822196746245027, 5319109.273774300701916 ], [ -8476830.822196746245027, 5319109.124474468640983 ], [ -8476830.859522210434079, 5319109.124474468640983 ], [ -8476830.859522210434079, 5319108.97517463658005 ], [ -8476830.896847672760487, 5319108.97517463658005 ], [ -8476830.896847672760487, 5319108.863199763000011 ], [ -8476830.934173136949539, 5319108.863199763000011 ], [ -8476830.934173136949539, 5319108.788549846969545 ], [ -8476830.971498601138592, 5319108.788549846969545 ], [ -8476830.971498601138592, 5319108.75122488848865 ], [ -8476831.008824063464999, 5319108.75122488848865 ], [ -8476831.008824063464999, 5319108.676574972458184 ], [ -8476831.046149527654052, 5319108.676574972458184 ], [ -8476831.046149527654052, 5319108.601925056427717 ], [ -8476831.083474989980459, 5319108.601925056427717 ], [ -8476831.083474989980459, 5319108.489950182847679 ], [ -8476831.120800454169512, 5319108.489950182847679 ], [ -8476831.120800454169512, 5319108.340650350786746 ], [ -8476831.158125916495919, 5319108.340650350786746 ], [ -8476831.158125916495919, 5319108.191350518725812 ], [ -8476831.195451380684972, 5319108.191350518725812 ], [ -8476831.195451380684972, 5319108.004725729115307 ], [ -8476831.232776844874024, 5319108.004725729115307 ], [ -8476831.232776844874024, 5319107.81810093857348 ], [ -8476831.270102307200432, 5319107.81810093857348 ], [ -8476831.270102307200432, 5319107.556826232932508 ], [ -8476831.307427771389484, 5319107.556826232932508 ], [ -8476831.307427771389484, 5319107.332876484841108 ], [ -8476831.344753233715892, 5319107.332876484841108 ], [ -8476831.344753233715892, 5319107.183576652780175 ], [ -8476831.382078697904944, 5319107.183576652780175 ], [ -8476831.382078697904944, 5319106.99695186316967 ], [ -8476831.419404160231352, 5319106.99695186316967 ], [ -8476831.419404160231352, 5319106.77300211507827 ], [ -8476831.456729624420404, 5319106.77300211507827 ], [ -8476831.456729624420404, 5319106.437077493406832 ], [ -8476831.494055088609457, 5319106.437077493406832 ], [ -8476831.494055088609457, 5319105.951853039674461 ], [ -8476831.531380550935864, 5319105.951853039674461 ], [ -8476831.531380550935864, 5319105.727903291583061 ], [ -8476831.568706015124917, 5319105.727903291583061 ], [ -8476831.568706015124917, 5319105.429303627461195 ], [ -8476831.606031477451324, 5319105.429303627461195 ], [ -8476831.606031477451324, 5319105.168028921820223 ], [ -8476831.643356941640377, 5319105.168028921820223 ], [ -8476831.643356941640377, 5319104.981404131278396 ], [ -8476831.68068240582943, 5319104.981404131278396 ], [ -8476831.68068240582943, 5319104.458854719996452 ], [ -8476831.718007868155837, 5319104.458854719996452 ], [ -8476831.718007868155837, 5319102.256682198494673 ], [ -8476831.68068240582943, 5319102.256682198494673 ], [ -8476831.68068240582943, 5319101.88343261834234 ], [ -8476831.643356941640377, 5319101.88343261834234 ], [ -8476831.643356941640377, 5319101.510183038190007 ], [ -8476831.606031477451324, 5319101.510183038190007 ], [ -8476831.606031477451324, 5319101.136933458037674 ], [ -8476831.568706015124917, 5319101.136933458037674 ], [ -8476831.568706015124917, 5319100.875658752396703 ], [ -8476831.531380550935864, 5319100.875658752396703 ], [ -8476831.531380550935864, 5319100.689033962786198 ], [ -8476831.494055088609457, 5319100.689033962786198 ], [ -8476831.494055088609457, 5319100.50240917224437 ], [ -8476831.456729624420404, 5319100.50240917224437 ], [ -8476831.456729624420404, 5319100.27845942415297 ], [ -8476831.419404160231352, 5319100.27845942415297 ], [ -8476831.419404160231352, 5319100.054509676992893 ], [ -8476831.382078697904944, 5319100.054509676992893 ], [ -8476831.382078697904944, 5319099.830559928901494 ], [ -8476831.344753233715892, 5319099.830559928901494 ], [ -8476831.344753233715892, 5319099.569285222329199 ], [ -8476831.307427771389484, 5319099.569285222329199 ], [ -8476831.307427771389484, 5319099.308010516688228 ], [ -8476831.270102307200432, 5319099.308010516688228 ], [ -8476831.270102307200432, 5319099.121385727077723 ], [ -8476831.232776844874024, 5319099.121385727077723 ], [ -8476831.232776844874024, 5319098.934760936535895 ], [ -8476831.195451380684972, 5319098.934760936535895 ], [ -8476831.195451380684972, 5319098.785461104474962 ], [ -8476831.158125916495919, 5319098.785461104474962 ], [ -8476831.158125916495919, 5319098.561511357314885 ], [ -8476831.120800454169512, 5319098.561511357314885 ], [ -8476831.120800454169512, 5319098.412211525253952 ], [ -8476831.083474989980459, 5319098.412211525253952 ], [ -8476831.083474989980459, 5319098.30023665074259 ], [ -8476831.046149527654052, 5319098.30023665074259 ], [ -8476831.046149527654052, 5319098.188261777162552 ], [ -8476831.008824063464999, 5319098.188261777162552 ], [ -8476831.008824063464999, 5319098.113611861132085 ], [ -8476830.971498601138592, 5319098.113611861132085 ], [ -8476830.971498601138592, 5319098.001636986620724 ], [ -8476830.934173136949539, 5319098.001636986620724 ], [ -8476830.934173136949539, 5319097.92698707152158 ], [ -8476830.896847672760487, 5319097.92698707152158 ], [ -8476830.896847672760487, 5319097.852337155491114 ], [ -8476830.859522210434079, 5319097.852337155491114 ], [ -8476830.859522210434079, 5319097.815012197010219 ], [ -8476830.822196746245027, 5319097.815012197010219 ], [ -8476830.822196746245027, 5319097.740362280979753 ], [ -8476830.784871283918619, 5319097.740362280979753 ], [ -8476830.784871283918619, 5319097.665712364949286 ], [ -8476830.747545819729567, 5319097.665712364949286 ], [ -8476830.747545819729567, 5319097.591062448918819 ], [ -8476830.710220357403159, 5319097.591062448918819 ], [ -8476830.710220357403159, 5319097.479087575338781 ], [ -8476830.672894893214107, 5319097.479087575338781 ], [ -8476830.672894893214107, 5319097.404437659308314 ], [ -8476830.635569429025054, 5319097.404437659308314 ], [ -8476830.635569429025054, 5319097.329787743277848 ], [ -8476830.598243966698647, 5319097.329787743277848 ], [ -8476830.598243966698647, 5319097.255137827247381 ], [ -8476830.560918502509594, 5319097.255137827247381 ], [ -8476830.560918502509594, 5319097.143162953667343 ], [ -8476830.523593040183187, 5319097.143162953667343 ], [ -8476830.523593040183187, 5319097.068513037636876 ], [ -8476830.486267575994134, 5319097.068513037636876 ], [ -8476830.486267575994134, 5319096.956538163125515 ], [ -8476830.448942113667727, 5319096.956538163125515 ], [ -8476830.448942113667727, 5319096.881888247095048 ], [ -8476830.411616649478674, 5319096.881888247095048 ], [ -8476830.411616649478674, 5319096.76991337351501 ], [ -8476830.374291185289621, 5319096.76991337351501 ], [ -8476830.374291185289621, 5319096.695263457484543 ], [ -8476830.336965722963214, 5319096.695263457484543 ], [ -8476830.336965722963214, 5319096.620613541454077 ], [ -8476830.299640258774161, 5319096.620613541454077 ], [ -8476830.299640258774161, 5319096.583288582973182 ], [ -8476830.262314796447754, 5319096.583288582973182 ], [ -8476830.262314796447754, 5319096.54596362542361 ], [ -8476830.224989332258701, 5319096.54596362542361 ], [ -8476830.224989332258701, 5319096.471313709393144 ], [ -8476830.187663869932294, 5319096.471313709393144 ], [ -8476830.187663869932294, 5319096.433988751843572 ], [ -8476830.150338405743241, 5319096.433988751843572 ], [ -8476830.150338405743241, 5319096.396663793362677 ], [ -8476830.113012941554189, 5319096.396663793362677 ], [ -8476830.113012941554189, 5319096.359338835813105 ], [ -8476830.038362015038729, 5319096.359338835813105 ], [ -8476830.038362015038729, 5319096.322013877332211 ], [ -8476830.001036552712321, 5319096.322013877332211 ], [ -8476830.001036552712321, 5319096.284688919782639 ], [ -8476829.963711088523269, 5319096.284688919782639 ], [ -8476829.963711088523269, 5319096.247363961301744 ], [ -8476829.926385626196861, 5319096.247363961301744 ], [ -8476829.926385626196861, 5319096.210039003752172 ], [ -8476829.889060162007809, 5319096.210039003752172 ], [ -8476829.889060162007809, 5319096.135389087721705 ], [ -8476829.851734697818756, 5319096.135389087721705 ], [ -8476829.851734697818756, 5319096.060739171691239 ], [ -8476829.814409235492349, 5319096.060739171691239 ], [ -8476829.814409235492349, 5319095.986089255660772 ], [ -8476829.777083771303296, 5319095.986089255660772 ], [ -8476829.777083771303296, 5319095.911439339630306 ], [ -8476829.739758308976889, 5319095.911439339630306 ], [ -8476829.739758308976889, 5319095.836789423599839 ], [ -8476829.702432844787836, 5319095.836789423599839 ], [ -8476829.702432844787836, 5319095.799464465118945 ], [ -8476829.665107380598783, 5319095.799464465118945 ], [ -8476829.665107380598783, 5319095.724814549088478 ], [ -8476829.627781918272376, 5319095.724814549088478 ], [ -8476829.627781918272376, 5319095.650164633989334 ], [ -8476829.590456454083323, 5319095.650164633989334 ], [ -8476829.590456454083323, 5319095.575514717958868 ], [ -8476829.553130991756916, 5319095.575514717958868 ], [ -8476829.553130991756916, 5319095.500864801928401 ], [ -8476829.515805527567863, 5319095.500864801928401 ], [ -8476829.515805527567863, 5319095.426214885897934 ], [ -8476829.478480065241456, 5319095.426214885897934 ], [ -8476829.478480065241456, 5319095.351564969867468 ], [ -8476829.441154601052403, 5319095.351564969867468 ], [ -8476829.441154601052403, 5319095.276915053837001 ], [ -8476829.403829136863351, 5319095.276915053837001 ], [ -8476829.403829136863351, 5319095.16494017932564 ], [ -8476829.366503674536943, 5319095.16494017932564 ], [ -8476829.366503674536943, 5319095.127615221776068 ], [ -8476829.329178210347891, 5319095.127615221776068 ], [ -8476829.329178210347891, 5319095.052965305745602 ], [ -8476829.291852748021483, 5319095.052965305745602 ], [ -8476829.291852748021483, 5319094.940990432165563 ], [ -8476829.254527283832431, 5319094.940990432165563 ], [ -8476829.254527283832431, 5319094.866340516135097 ], [ -8476829.217201821506023, 5319094.866340516135097 ], [ -8476829.217201821506023, 5319094.79169060010463 ], [ -8476829.179876357316971, 5319094.79169060010463 ], [ -8476829.179876357316971, 5319094.717040684074163 ], [ -8476829.142550893127918, 5319094.717040684074163 ], [ -8476829.142550893127918, 5319094.679715725593269 ], [ -8476829.105225430801511, 5319094.679715725593269 ], [ -8476829.105225430801511, 5319094.605065809562802 ], [ -8476829.067899966612458, 5319094.605065809562802 ], [ -8476829.067899966612458, 5319094.530415893532336 ], [ -8476829.030574504286051, 5319094.530415893532336 ], [ -8476829.030574504286051, 5319094.493090935982764 ], [ -8476828.993249040096998, 5319094.493090935982764 ], [ -8476828.993249040096998, 5319094.418441019952297 ], [ -8476828.955923577770591, 5319094.418441019952297 ], [ -8476828.955923577770591, 5319094.381116061471403 ], [ -8476828.918598113581538, 5319094.381116061471403 ], [ -8476828.918598113581538, 5319094.343791103921831 ], [ -8476828.881272649392486, 5319094.343791103921831 ], [ -8476828.881272649392486, 5319094.306466145440936 ], [ -8476828.843947187066078, 5319094.306466145440936 ], [ -8476828.843947187066078, 5319094.269141187891364 ], [ -8476828.806621722877026, 5319094.269141187891364 ], [ -8476828.806621722877026, 5319094.23181622941047 ], [ -8476828.769296260550618, 5319094.23181622941047 ], [ -8476828.769296260550618, 5319094.194491271860898 ], [ -8476828.731970796361566, 5319094.194491271860898 ], [ -8476828.731970796361566, 5319094.157166314311326 ], [ -8476828.694645334035158, 5319094.157166314311326 ], [ -8476828.694645334035158, 5319094.082516398280859 ], [ -8476828.657319869846106, 5319094.082516398280859 ], [ -8476828.657319869846106, 5319094.045191439799964 ], [ -8476828.619994405657053, 5319094.045191439799964 ], [ -8476828.619994405657053, 5319093.970541523769498 ], [ -8476828.582668943330646, 5319093.970541523769498 ], [ -8476828.582668943330646, 5319093.895891607739031 ], [ -8476828.545343479141593, 5319093.895891607739031 ], [ -8476828.545343479141593, 5319093.858566650189459 ], [ -8476828.508018016815186, 5319093.858566650189459 ], [ -8476828.508018016815186, 5319093.783916734158993 ], [ -8476828.470692552626133, 5319093.783916734158993 ], [ -8476828.470692552626133, 5319093.746591775678098 ], [ -8476828.433367090299726, 5319093.746591775678098 ], [ -8476828.433367090299726, 5319093.671941859647632 ], [ -8476828.396041626110673, 5319093.671941859647632 ], [ -8476828.396041626110673, 5319093.63461690209806 ], [ -8476828.35871616192162, 5319093.63461690209806 ], [ -8476828.35871616192162, 5319093.597291943617165 ], [ -8476828.321390699595213, 5319093.597291943617165 ], [ -8476828.321390699595213, 5319093.559966986067593 ], [ -8476828.28406523540616, 5319093.559966986067593 ], [ -8476828.28406523540616, 5319093.522642027586699 ], [ -8476828.2094143088907, 5319093.522642027586699 ], [ -8476828.2094143088907, 5319093.485317070037127 ], [ -8476828.172088846564293, 5319093.485317070037127 ], [ -8476828.172088846564293, 5319093.447992112487555 ], [ -8476828.097437918186188, 5319093.447992112487555 ], [ -8476828.097437918186188, 5319093.41066715400666 ], [ -8476828.06011245585978, 5319093.41066715400666 ], [ -8476828.06011245585978, 5319093.373342196457088 ], [ -8476828.022786991670728, 5319093.373342196457088 ], [ -8476828.022786991670728, 5319093.336017237976193 ], [ -8476827.98546152934432, 5319093.336017237976193 ], [ -8476827.98546152934432, 5319093.298692280426621 ], [ -8476827.948136065155268, 5319093.298692280426621 ], [ -8476827.948136065155268, 5319093.261367321945727 ], [ -8476827.91081060282886, 5319093.261367321945727 ], [ -8476827.91081060282886, 5319093.224042364396155 ], [ -8476827.873485138639808, 5319093.224042364396155 ], [ -8476827.873485138639808, 5319093.149392448365688 ], [ -8476827.836159674450755, 5319093.149392448365688 ], [ -8476827.836159674450755, 5319093.112067489884794 ], [ -8476827.798834212124348, 5319093.112067489884794 ], [ -8476827.798834212124348, 5319093.037417573854327 ], [ -8476827.761508747935295, 5319093.037417573854327 ], [ -8476827.761508747935295, 5319093.000092616304755 ], [ -8476827.724183285608888, 5319093.000092616304755 ], [ -8476827.724183285608888, 5319092.962767657823861 ], [ -8476827.686857821419835, 5319092.962767657823861 ], [ -8476827.686857821419835, 5319092.888117741793394 ], [ -8476827.649532357230783, 5319092.888117741793394 ], [ -8476827.649532357230783, 5319092.850792784243822 ], [ -8476827.612206894904375, 5319092.850792784243822 ], [ -8476827.612206894904375, 5319092.813467825762928 ], [ -8476827.574881430715322, 5319092.813467825762928 ], [ -8476827.574881430715322, 5319092.738817909732461 ], [ -8476827.537555968388915, 5319092.738817909732461 ], [ -8476827.537555968388915, 5319092.701492952182889 ], [ -8476827.500230504199862, 5319092.701492952182889 ], [ -8476827.500230504199862, 5319092.626843036152422 ], [ -8476827.462905041873455, 5319092.626843036152422 ], [ -8476827.462905041873455, 5319092.58951807860285 ], [ -8476827.425579577684402, 5319092.58951807860285 ], [ -8476827.425579577684402, 5319092.514868162572384 ], [ -8476827.38825411349535, 5319092.514868162572384 ], [ -8476827.38825411349535, 5319092.477543204091489 ], [ -8476827.350928651168942, 5319092.477543204091489 ], [ -8476827.350928651168942, 5319092.440218246541917 ], [ -8476827.31360318697989, 5319092.440218246541917 ], [ -8476827.31360318697989, 5319092.402893288061023 ], [ -8476827.276277724653482, 5319092.402893288061023 ], [ -8476827.276277724653482, 5319092.365568330511451 ], [ -8476827.23895226046443, 5319092.365568330511451 ], [ -8476827.23895226046443, 5319092.328243372030556 ], [ -8476827.201626798138022, 5319092.328243372030556 ], [ -8476827.201626798138022, 5319092.290918414480984 ], [ -8476827.16430133394897, 5319092.290918414480984 ], [ -8476827.16430133394897, 5319092.25359345600009 ], [ -8476827.08965040743351, 5319092.25359345600009 ], [ -8476827.08965040743351, 5319092.216268498450518 ], [ -8476827.052324943244457, 5319092.216268498450518 ], [ -8476827.052324943244457, 5319092.178943539969623 ], [ -8476827.01499948091805, 5319092.178943539969623 ], [ -8476827.01499948091805, 5319092.141618582420051 ], [ -8476826.977674016728997, 5319092.141618582420051 ], [ -8476826.977674016728997, 5319092.104293623939157 ], [ -8476826.94034855440259, 5319092.104293623939157 ], [ -8476826.94034855440259, 5319092.066968666389585 ], [ -8476826.903023090213537, 5319092.066968666389585 ], [ -8476826.903023090213537, 5319092.02964370790869 ], [ -8476826.865697626024485, 5319092.02964370790869 ], [ -8476826.865697626024485, 5319091.992318750359118 ], [ -8476826.828372163698077, 5319091.992318750359118 ], [ -8476826.828372163698077, 5319091.954993792809546 ], [ -8476826.791046699509025, 5319091.954993792809546 ], [ -8476826.791046699509025, 5319091.917668834328651 ], [ -8476826.753721237182617, 5319091.917668834328651 ], [ -8476826.753721237182617, 5319091.880343876779079 ], [ -8476826.716395772993565, 5319091.880343876779079 ], [ -8476826.716395772993565, 5319091.805693960748613 ], [ -8476826.679070310667157, 5319091.805693960748613 ], [ -8476826.679070310667157, 5319091.768369002267718 ], [ -8476826.641744846478105, 5319091.768369002267718 ], [ -8476826.641744846478105, 5319091.731044044718146 ], [ -8476826.604419382289052, 5319091.731044044718146 ], [ -8476826.604419382289052, 5319091.65639412868768 ], [ -8476826.567093919962645, 5319091.65639412868768 ], [ -8476826.567093919962645, 5319091.619069170206785 ], [ -8476826.529768455773592, 5319091.619069170206785 ], [ -8476826.529768455773592, 5319091.581744212657213 ], [ -8476826.492442993447185, 5319091.581744212657213 ], [ -8476826.492442993447185, 5319091.544419254176319 ], [ -8476826.455117529258132, 5319091.544419254176319 ], [ -8476826.455117529258132, 5319091.507094296626747 ], [ -8476826.417792066931725, 5319091.507094296626747 ], [ -8476826.417792066931725, 5319091.43244438059628 ], [ -8476826.343141138553619, 5319091.43244438059628 ], [ -8476826.343141138553619, 5319091.395119422115386 ], [ -8476826.305815676227212, 5319091.395119422115386 ], [ -8476826.305815676227212, 5319091.357794464565814 ], [ -8476826.268490212038159, 5319091.357794464565814 ], [ -8476826.268490212038159, 5319091.320469506084919 ], [ -8476826.231164749711752, 5319091.320469506084919 ], [ -8476826.231164749711752, 5319091.283144548535347 ], [ -8476826.193839285522699, 5319091.283144548535347 ], [ -8476826.193839285522699, 5319091.245819590985775 ], [ -8476826.156513823196292, 5319091.245819590985775 ], [ -8476826.156513823196292, 5319091.20849463250488 ], [ -8476826.119188359007239, 5319091.20849463250488 ], [ -8476826.119188359007239, 5319091.171169674955308 ], [ -8476826.081862894818187, 5319091.171169674955308 ], [ -8476826.081862894818187, 5319091.133844716474414 ], [ -8476826.007211968302727, 5319091.133844716474414 ], [ -8476826.007211968302727, 5319091.096519758924842 ], [ -8476825.969886505976319, 5319091.096519758924842 ], [ -8476825.969886505976319, 5319091.059194800443947 ], [ -8476825.932561041787267, 5319091.059194800443947 ], [ -8476825.932561041787267, 5319091.021869842894375 ], [ -8476825.895235577598214, 5319091.021869842894375 ], [ -8476825.895235577598214, 5319090.984544884413481 ], [ -8476825.857910115271807, 5319090.984544884413481 ], [ -8476825.857910115271807, 5319090.947219926863909 ], [ -8476825.820584651082754, 5319090.947219926863909 ], [ -8476825.820584651082754, 5319090.909894968383014 ], [ -8476825.783259188756347, 5319090.909894968383014 ], [ -8476825.783259188756347, 5319090.872570010833442 ], [ -8476825.708608262240887, 5319090.872570010833442 ], [ -8476825.708608262240887, 5319090.835245052352548 ], [ -8476825.671282798051834, 5319090.835245052352548 ], [ -8476825.671282798051834, 5319090.797920094802976 ], [ -8476825.633957333862782, 5319090.797920094802976 ], [ -8476825.633957333862782, 5319090.760595136322081 ], [ -8476825.596631871536374, 5319090.760595136322081 ], [ -8476825.596631871536374, 5319090.723270178772509 ], [ -8476825.559306407347322, 5319090.723270178772509 ], [ -8476825.559306407347322, 5319090.685945220291615 ], [ -8476825.521980945020914, 5319090.685945220291615 ], [ -8476825.521980945020914, 5319090.648620262742043 ], [ -8476825.484655480831861, 5319090.648620262742043 ], [ -8476825.484655480831861, 5319090.611295304261148 ], [ -8476825.447330018505454, 5319090.611295304261148 ], [ -8476825.447330018505454, 5319090.573970346711576 ], [ -8476825.372679090127349, 5319090.573970346711576 ], [ -8476825.372679090127349, 5319090.536645388230681 ], [ -8476825.335353627800941, 5319090.536645388230681 ], [ -8476825.335353627800941, 5319090.499320430681109 ], [ -8476825.260702701285481, 5319090.499320430681109 ], [ -8476825.260702701285481, 5319090.461995473131537 ], [ -8476825.223377237096429, 5319090.461995473131537 ], [ -8476825.223377237096429, 5319090.424670514650643 ], [ -8476825.148726310580969, 5319090.424670514650643 ], [ -8476825.148726310580969, 5319090.387345557101071 ], [ -8476825.074075384065509, 5319090.387345557101071 ], [ -8476825.074075384065509, 5319090.350020598620176 ], [ -8476825.036749919876456, 5319090.350020598620176 ], [ -8476825.036749919876456, 5319090.312695641070604 ], [ -8476824.962098993360996, 5319090.312695641070604 ], [ -8476824.962098993360996, 5319090.27537068258971 ], [ -8476824.924773531034589, 5319090.27537068258971 ], [ -8476824.924773531034589, 5319090.238045725040138 ], [ -8476824.887448066845536, 5319090.238045725040138 ], [ -8476824.887448066845536, 5319090.200720766559243 ], [ -8476824.850122602656484, 5319090.200720766559243 ], [ -8476824.850122602656484, 5319090.163395809009671 ], [ -8476824.812797140330076, 5319090.163395809009671 ], [ -8476824.812797140330076, 5319090.126070850528777 ], [ -8476824.738146213814616, 5319090.126070850528777 ], [ -8476824.738146213814616, 5319090.088745892979205 ], [ -8476824.700820749625564, 5319090.088745892979205 ], [ -8476824.700820749625564, 5319090.05142093449831 ], [ -8476824.626169823110104, 5319090.05142093449831 ], [ -8476824.626169823110104, 5319090.014095976948738 ], [ -8476824.588844358921051, 5319090.014095976948738 ], [ -8476824.588844358921051, 5319089.976771018467844 ], [ -8476824.551518896594644, 5319089.976771018467844 ], [ -8476824.551518896594644, 5319089.939446060918272 ], [ -8476824.476867970079184, 5319089.939446060918272 ], [ -8476824.476867970079184, 5319089.902121102437377 ], [ -8476824.402217043563724, 5319089.902121102437377 ], [ -8476824.402217043563724, 5319089.864796144887805 ], [ -8476824.290240652859211, 5319089.864796144887805 ], [ -8476824.290240652859211, 5319089.82747118640691 ], [ -8476824.215589726343751, 5319089.82747118640691 ], [ -8476824.215589726343751, 5319089.790146228857338 ], [ -8476824.140938797965646, 5319089.790146228857338 ], [ -8476824.140938797965646, 5319089.752821271307766 ], [ -8476824.066287871450186, 5319089.752821271307766 ], [ -8476824.066287871450186, 5319089.715496312826872 ], [ -8476823.991636944934726, 5319089.715496312826872 ], [ -8476823.991636944934726, 5319089.6781713552773 ], [ -8476823.879660554230213, 5319089.6781713552773 ], [ -8476823.879660554230213, 5319089.640846396796405 ], [ -8476823.805009627714753, 5319089.640846396796405 ], [ -8476823.805009627714753, 5319089.603521439246833 ], [ -8476823.730358701199293, 5319089.603521439246833 ], [ -8476823.730358701199293, 5319089.566196480765939 ], [ -8476823.693033238872886, 5319089.566196480765939 ], [ -8476823.693033238872886, 5319089.528871523216367 ], [ -8476823.618382310494781, 5319089.528871523216367 ], [ -8476823.618382310494781, 5319089.491546564735472 ], [ -8476823.581056848168373, 5319089.491546564735472 ], [ -8476823.581056848168373, 5319089.4542216071859 ], [ -8476823.506405921652913, 5319089.4542216071859 ], [ -8476823.506405921652913, 5319089.416896648705006 ], [ -8476823.431754995137453, 5319089.416896648705006 ], [ -8476823.431754995137453, 5319089.379571691155434 ], [ -8476823.31977860443294, 5319089.379571691155434 ], [ -8476823.31977860443294, 5319089.342246732674539 ], [ -8476823.207802213728428, 5319089.342246732674539 ], [ -8476823.207802213728428, 5319089.304921775124967 ], [ -8476823.133151287212968, 5319089.304921775124967 ], [ -8476823.133151287212968, 5319089.267596816644073 ], [ -8476823.058500360697508, 5319089.267596816644073 ], [ -8476823.058500360697508, 5319089.230271859094501 ], [ -8476822.946523969992995, 5319089.230271859094501 ], [ -8476822.946523969992995, 5319089.192946900613606 ], [ -8476822.871873043477535, 5319089.192946900613606 ], [ -8476822.871873043477535, 5319089.155621943064034 ], [ -8476822.797222116962075, 5319089.155621943064034 ], [ -8476822.797222116962075, 5319089.118296984583139 ], [ -8476822.685245726257563, 5319089.118296984583139 ], [ -8476822.685245726257563, 5319089.080972027033567 ], [ -8476822.57326933555305, 5319089.080972027033567 ], [ -8476822.57326933555305, 5319089.043647068552673 ], [ -8476822.461292946711183, 5319089.043647068552673 ], [ -8476822.461292946711183, 5319089.006322111003101 ], [ -8476822.34931655600667, 5319089.006322111003101 ], [ -8476822.34931655600667, 5319088.968997153453529 ], [ -8476822.237340165302157, 5319088.968997153453529 ], [ -8476822.237340165302157, 5319088.931672194972634 ], [ -8476822.162689238786697, 5319088.931672194972634 ], [ -8476822.162689238786697, 5319088.894347237423062 ], [ -8476821.976061921566725, 5319088.894347237423062 ], [ -8476821.976061921566725, 5319088.857022278942168 ], [ -8476821.826760068535805, 5319088.857022278942168 ], [ -8476821.826760068535805, 5319088.819697321392596 ], [ -8476821.677458215504885, 5319088.819697321392596 ], [ -8476821.677458215504885, 5319088.782372362911701 ], [ -8476821.45350543409586, 5319088.782372362911701 ], [ -8476821.45350543409586, 5319088.745047405362129 ], [ -8476821.304203581064939, 5319088.745047405362129 ], [ -8476821.304203581064939, 5319088.707722446881235 ], [ -8476821.154901728034019, 5319088.707722446881235 ], [ -8476821.154901728034019, 5319088.745047405362129 ], [ -8476821.117576263844967, 5319088.745047405362129 ], [ -8476821.117576263844967, 5319088.782372362911701 ], [ -8476821.080250799655914, 5319088.782372362911701 ], [ -8476821.080250799655914, 5319088.819697321392596 ], [ -8476821.042925337329507, 5319088.819697321392596 ], [ -8476821.042925337329507, 5319088.857022278942168 ], [ -8476821.005599873140454, 5319088.857022278942168 ], [ -8476821.005599873140454, 5319088.894347237423062 ], [ -8476820.968274410814047, 5319088.894347237423062 ], [ -8476820.968274410814047, 5319088.968997153453529 ], [ -8476820.930948946624994, 5319088.968997153453529 ], [ -8476820.930948946624994, 5319089.006322111003101 ], [ -8476820.893623484298587, 5319089.006322111003101 ], [ -8476820.893623484298587, 5319089.080972027033567 ], [ -8476820.856298020109534, 5319089.080972027033567 ], [ -8476820.856298020109534, 5319089.118296984583139 ], [ -8476820.818972555920482, 5319089.118296984583139 ], [ -8476820.818972555920482, 5319089.155621943064034 ], [ -8476820.781647093594074, 5319089.155621943064034 ], [ -8476820.781647093594074, 5319089.230271859094501 ], [ -8476820.744321629405022, 5319089.230271859094501 ], [ -8476820.744321629405022, 5319089.267596816644073 ], [ -8476820.706996167078614, 5319089.267596816644073 ], [ -8476820.706996167078614, 5319089.342246732674539 ], [ -8476820.669670702889562, 5319089.342246732674539 ], [ -8476820.669670702889562, 5319089.416896648705006 ], [ -8476820.632345238700509, 5319089.416896648705006 ], [ -8476820.632345238700509, 5319089.491546564735472 ], [ -8476820.595019776374102, 5319089.491546564735472 ], [ -8476820.595019776374102, 5319089.603521439246833 ], [ -8476820.557694312185049, 5319089.603521439246833 ], [ -8476820.557694312185049, 5319089.640846396796405 ], [ -8476820.520368849858642, 5319089.640846396796405 ], [ -8476820.520368849858642, 5319089.715496312826872 ], [ -8476820.483043385669589, 5319089.715496312826872 ], [ -8476820.483043385669589, 5319089.752821271307766 ], [ -8476820.445717923343182, 5319089.752821271307766 ], [ -8476820.445717923343182, 5319089.790146228857338 ], [ -8476820.408392459154129, 5319089.790146228857338 ], [ -8476820.408392459154129, 5319089.82747118640691 ], [ -8476820.371066994965076, 5319089.82747118640691 ], [ -8476820.371066994965076, 5319089.864796144887805 ], [ -8476820.296416068449616, 5319089.864796144887805 ], [ -8476820.296416068449616, 5319089.902121102437377 ], [ -8476820.221765141934156, 5319089.902121102437377 ], [ -8476820.221765141934156, 5319089.939446060918272 ], [ -8476820.147114215418696, 5319089.939446060918272 ], [ -8476820.147114215418696, 5319089.976771018467844 ], [ -8476820.072463288903236, 5319089.976771018467844 ], [ -8476820.072463288903236, 5319090.014095976948738 ], [ -8476819.997812362387776, 5319090.014095976948738 ], [ -8476819.997812362387776, 5319090.05142093449831 ], [ -8476819.923161435872316, 5319090.05142093449831 ], [ -8476819.923161435872316, 5319090.088745892979205 ], [ -8476819.885835971683264, 5319090.088745892979205 ], [ -8476819.885835971683264, 5319090.126070850528777 ], [ -8476819.811185045167804, 5319090.126070850528777 ], [ -8476819.811185045167804, 5319090.200720766559243 ], [ -8476819.773859580978751, 5319090.200720766559243 ], [ -8476819.773859580978751, 5319090.312695641070604 ], [ -8476819.736534118652344, 5319090.312695641070604 ], [ -8476819.736534118652344, 5319090.424670514650643 ], [ -8476819.699208654463291, 5319090.424670514650643 ], [ -8476819.699208654463291, 5319090.536645388230681 ], [ -8476819.661883192136884, 5319090.536645388230681 ], [ -8476819.661883192136884, 5319090.648620262742043 ], [ -8476819.624557727947831, 5319090.648620262742043 ], [ -8476819.624557727947831, 5319090.760595136322081 ], [ -8476819.587232263758779, 5319090.760595136322081 ], [ -8476819.587232263758779, 5319090.947219926863909 ], [ -8476819.549906801432371, 5319090.947219926863909 ], [ -8476819.549906801432371, 5319091.171169674955308 ], [ -8476819.512581337243319, 5319091.171169674955308 ], [ -8476819.512581337243319, 5319092.066968666389585 ], [ -8476819.475255874916911, 5319092.066968666389585 ], [ -8476819.475255874916911, 5319094.642390768043697 ], [ -8476819.437930410727859, 5319094.642390768043697 ], [ -8476819.437930410727859, 5319094.866340516135097 ], [ -8476819.400604948401451, 5319094.866340516135097 ], [ -8476819.400604948401451, 5319095.127615221776068 ], [ -8476819.363279484212399, 5319095.127615221776068 ], [ -8476819.363279484212399, 5319095.314240011386573 ], [ -8476819.325954020023346, 5319095.314240011386573 ], [ -8476819.325954020023346, 5319095.426214885897934 ], [ -8476819.288628557696939, 5319095.426214885897934 ], [ -8476819.288628557696939, 5319095.538189759477973 ], [ -8476819.251303093507886, 5319095.538189759477973 ], [ -8476819.251303093507886, 5319095.575514717958868 ], [ -8476819.213977631181479, 5319095.575514717958868 ], [ -8476819.213977631181479, 5319095.61283967550844 ], [ -8476819.176652166992426, 5319095.61283967550844 ], [ -8476819.176652166992426, 5319095.650164633989334 ], [ -8476819.102001240476966, 5319095.650164633989334 ], [ -8476819.102001240476966, 5319095.687489591538906 ], [ -8476819.064675776287913, 5319095.687489591538906 ], [ -8476819.064675776287913, 5319095.724814549088478 ], [ -8476818.990024849772453, 5319095.724814549088478 ], [ -8476818.990024849772453, 5319095.762139507569373 ], [ -8476818.915373923256993, 5319095.762139507569373 ], [ -8476818.915373923256993, 5319095.799464465118945 ], [ -8476818.766072070226073, 5319095.799464465118945 ], [ -8476818.766072070226073, 5319095.836789423599839 ], [ -8476818.355491971597075, 5319095.836789423599839 ], [ -8476818.355491971597075, 5319095.874114381149411 ], [ -8476817.870260948315263, 5319095.874114381149411 ], [ -8476817.870260948315263, 5319095.911439339630306 ], [ -8476817.68363363109529, 5319095.911439339630306 ], [ -8476817.68363363109529, 5319095.948764297179878 ], [ -8476817.60898270457983, 5319095.948764297179878 ], [ -8476817.60898270457983, 5319095.986089255660772 ], [ -8476817.53433177806437, 5319095.986089255660772 ], [ -8476817.53433177806437, 5319096.023414213210344 ], [ -8476817.45968085154891, 5319096.023414213210344 ], [ -8476817.45968085154891, 5319096.060739171691239 ], [ -8476817.38502992503345, 5319096.060739171691239 ], [ -8476817.38502992503345, 5319096.098064129240811 ], [ -8476817.310378996655345, 5319096.098064129240811 ], [ -8476817.310378996655345, 5319096.135389087721705 ], [ -8476817.198402607813478, 5319096.135389087721705 ], [ -8476817.198402607813478, 5319096.172714045271277 ], [ -8476817.123751681298018, 5319096.172714045271277 ], [ -8476817.123751681298018, 5319096.210039003752172 ], [ -8476817.011775290593505, 5319096.210039003752172 ], [ -8476817.011775290593505, 5319096.247363961301744 ], [ -8476816.937124364078045, 5319096.247363961301744 ], [ -8476816.937124364078045, 5319096.284688919782639 ], [ -8476816.825147973373532, 5319096.284688919782639 ], [ -8476816.825147973373532, 5319096.322013877332211 ], [ -8476816.675846120342612, 5319096.322013877332211 ], [ -8476816.675846120342612, 5319096.359338835813105 ], [ -8476816.48921880312264, 5319096.359338835813105 ], [ -8476816.48921880312264, 5319096.396663793362677 ], [ -8476814.622945632785559, 5319096.396663793362677 ], [ -8476814.622945632785559, 5319096.433988751843572 ], [ -8476814.361667389050126, 5319096.433988751843572 ], [ -8476814.361667389050126, 5319096.471313709393144 ], [ -8476814.100389145314693, 5319096.471313709393144 ], [ -8476814.100389145314693, 5319096.508638666942716 ], [ -8476813.727134510874748, 5319096.508638666942716 ], [ -8476813.727134510874748, 5319096.54596362542361 ], [ -8476813.577832657843828, 5319096.54596362542361 ], [ -8476813.577832657843828, 5319096.583288582973182 ], [ -8476813.540507193654776, 5319096.583288582973182 ], [ -8476813.540507193654776, 5319096.620613541454077 ], [ -8476813.503181731328368, 5319096.620613541454077 ], [ -8476813.503181731328368, 5319096.732588415034115 ], [ -8476813.465856267139316, 5319096.732588415034115 ], [ -8476813.465856267139316, 5319096.881888247095048 ], [ -8476813.428530804812908, 5319096.881888247095048 ], [ -8476813.428530804812908, 5319097.031188079155982 ], [ -8476813.391205340623856, 5319097.031188079155982 ], [ -8476813.391205340623856, 5319097.217812868766487 ], [ -8476813.353879876434803, 5319097.217812868766487 ], [ -8476813.353879876434803, 5319097.516412532888353 ], [ -8476813.316554414108396, 5319097.516412532888353 ], [ -8476813.316554414108396, 5319100.12915959302336 ], [ -8476813.279228949919343, 5319100.12915959302336 ], [ -8476813.279228949919343, 5319103.264456063508987 ], [ -8476813.241903487592936, 5319103.264456063508987 ], [ -8476813.241903487592936, 5319104.160255055874586 ], [ -8476813.279228949919343, 5319104.160255055874586 ], [ -8476813.279228949919343, 5319104.869429257698357 ], [ -8476813.241903487592936, 5319104.869429257698357 ], [ -8476813.241903487592936, 5319104.944079173728824 ], [ -8476813.279228949919343, 5319104.944079173728824 ], [ -8476813.279228949919343, 5319106.063827913254499 ], [ -8476813.241903487592936, 5319106.063827913254499 ], [ -8476813.241903487592936, 5319107.146251695230603 ], [ -8476813.279228949919343, 5319107.146251695230603 ], [ -8476813.279228949919343, 5319107.519501275382936 ], [ -8476813.241903487592936, 5319107.519501275382936 ], [ -8476813.241903487592936, 5319108.116700602695346 ], [ -8476813.204578023403883, 5319108.116700602695346 ], [ -8476813.204578023403883, 5319108.228675477206707 ], [ -8476813.241903487592936, 5319108.228675477206707 ], [ -8476813.241903487592936, 5319108.937849679030478 ], [ -8476813.204578023403883, 5319108.937849679030478 ], [ -8476813.204578023403883, 5319109.348424216732383 ], [ -8476813.167252561077476, 5319109.348424216732383 ], [ -8476813.167252561077476, 5319110.206898250617087 ], [ -8476813.204578023403883, 5319110.206898250617087 ], [ -8476813.204578023403883, 5319111.214672116562724 ], [ -8476813.241903487592936, 5319111.214672116562724 ], [ -8476813.241903487592936, 5319112.073146149516106 ], [ -8476813.204578023403883, 5319112.073146149516106 ], [ -8476813.204578023403883, 5319113.902069091796875 ], [ -8476813.167252561077476, 5319113.902069091796875 ], [ -8476813.167252561077476, 5319113.939394049346447 ], [ -8476813.204578023403883, 5319113.939394049346447 ], [ -8476813.204578023403883, 5319115.059142788872123 ], [ -8476813.167252561077476, 5319115.059142788872123 ], [ -8476813.167252561077476, 5319116.178891529329121 ], [ -8476813.129927096888423, 5319116.178891529329121 ], [ -8476813.129927096888423, 5319116.589466067031026 ], [ -8476813.167252561077476, 5319116.589466067031026 ], [ -8476813.167252561077476, 5319117.410615142434835 ], [ -8476813.129927096888423, 5319117.410615142434835 ], [ -8476813.129927096888423, 5319117.746539765037596 ], [ -8476813.09260163269937, 5319117.746539765037596 ], [ -8476813.09260163269937, 5319118.119789344258606 ], [ -8476813.129927096888423, 5319118.119789344258606 ], [ -8476813.129927096888423, 5319118.231764218769968 ], [ -8476813.167252561077476, 5319118.231764218769968 ], [ -8476813.167252561077476, 5319118.26908917631954 ], [ -8476813.129927096888423, 5319118.26908917631954 ], [ -8476813.129927096888423, 5319118.306414134800434 ], [ -8476813.055276170372963, 5319118.306414134800434 ], [ -8476813.055276170372963, 5319118.343739092350006 ], [ -8476813.01795070618391, 5319118.343739092350006 ], [ -8476813.01795070618391, 5319118.381064050830901 ], [ -8476812.905974317342043, 5319118.381064050830901 ], [ -8476812.905974317342043, 5319118.418389008380473 ], [ -8476812.79399792663753, 5319118.418389008380473 ], [ -8476812.79399792663753, 5319118.455713966861367 ], [ -8476812.64469607360661, 5319118.455713966861367 ], [ -8476812.64469607360661, 5319118.493038924410939 ], [ -8476812.532719682902098, 5319118.493038924410939 ], [ -8476812.532719682902098, 5319118.530363882891834 ], [ -8476812.420743292197585, 5319118.530363882891834 ], [ -8476812.420743292197585, 5319118.567688840441406 ], [ -8476812.308766901493073, 5319118.567688840441406 ], [ -8476812.308766901493073, 5319118.6050137989223 ], [ -8476812.420743292197585, 5319118.6050137989223 ], [ -8476812.420743292197585, 5319118.642338756471872 ], [ -8476812.905974317342043, 5319118.642338756471872 ], [ -8476812.905974317342043, 5319118.679663714952767 ], [ -8476813.316554414108396, 5319118.679663714952767 ], [ -8476813.316554414108396, 5319118.716988672502339 ], [ -8476813.540507193654776, 5319118.716988672502339 ], [ -8476813.540507193654776, 5319118.754313630983233 ], [ -8476814.846898412331939, 5319118.754313630983233 ], [ -8476814.846898412331939, 5319118.791638588532805 ], [ -8476816.302591485902667, 5319118.791638588532805 ], [ -8476816.302591485902667, 5319118.754313630983233 ], [ -8476816.86247343569994, 5319118.754313630983233 ], [ -8476816.86247343569994, 5319118.791638588532805 ], [ -8476817.011775290593505, 5319118.791638588532805 ] ] ] } }
]
}
