{
"type": "FeatureCollection",
"name": "a1_segment_0740fe76-47da-490f-a9d8-e679169f97b2",
"features": [
{ "type": "Feature", "properties": { "value": 255.0 }, "geometry": { "type": "Polygon", "coordinates": [ [ [ 542.0, 548.0 ], [ 542.0, 549.0 ], [ 541.0, 549.0 ], [ 541.0, 550.0 ], [ 540.0, 550.0 ], [ 540.0, 554.0 ], [ 539.0, 554.0 ], [ 539.0, 590.0 ], [ 540.0, 590.0 ], [ 540.0, 614.0 ], [ 541.0, 614.0 ], [ 541.0, 626.0 ], [ 542.0, 626.0 ], [ 542.0, 630.0 ], [ 543.0, 630.0 ], [ 543.0, 666.0 ], [ 544.0, 666.0 ], [ 544.0, 680.0 ], [ 545.0, 680.0 ], [ 545.0, 691.0 ], [ 546.0, 691.0 ], [ 546.0, 705.0 ], [ 547.0, 705.0 ], [ 547.0, 724.0 ], [ 548.0, 724.0 ], [ 548.0, 736.0 ], [ 549.0, 736.0 ], [ 549.0, 748.0 ], [ 550.0, 748.0 ], [ 550.0, 755.0 ], [ 551.0, 755.0 ], [ 551.0, 763.0 ], [ 552.0, 763.0 ], [ 552.0, 766.0 ], [ 553.0, 766.0 ], [ 553.0, 767.0 ], [ 554.0, 767.0 ], [ 554.0, 768.0 ], [ 559.0, 768.0 ], [ 559.0, 767.0 ], [ 560.0, 767.0 ], [ 560.0, 766.0 ], [ 561.0, 766.0 ], [ 561.0, 761.0 ], [ 562.0, 761.0 ], [ 562.0, 736.0 ], [ 561.0, 736.0 ], [ 561.0, 724.0 ], [ 560.0, 724.0 ], [ 560.0, 714.0 ], [ 559.0, 714.0 ], [ 559.0, 703.0 ], [ 558.0, 703.0 ], [ 558.0, 687.0 ], [ 557.0, 687.0 ], [ 557.0, 673.0 ], [ 556.0, 673.0 ], [ 556.0, 663.0 ], [ 555.0, 663.0 ], [ 555.0, 651.0 ], [ 554.0, 651.0 ], [ 554.0, 645.0 ], [ 553.0, 645.0 ], [ 553.0, 640.0 ], [ 552.0, 640.0 ], [ 552.0, 636.0 ], [ 551.0, 636.0 ], [ 551.0, 612.0 ], [ 552.0, 612.0 ], [ 552.0, 609.0 ], [ 551.0, 609.0 ], [ 551.0, 570.0 ], [ 550.0, 570.0 ], [ 550.0, 567.0 ], [ 551.0, 567.0 ], [ 551.0, 566.0 ], [ 550.0, 566.0 ], [ 550.0, 562.0 ], [ 551.0, 562.0 ], [ 551.0, 557.0 ], [ 550.0, 557.0 ], [ 550.0, 550.0 ], [ 549.0, 550.0 ], [ 549.0, 549.0 ], [ 548.0, 549.0 ], [ 548.0, 548.0 ], [ 542.0, 548.0 ] ] ] } },
{ "type": "Feature", "properties": { "value": 255.0 }, "geometry": { "type": "Polygon", "coordinates": [ [ [ 457.0, 585.0 ], [ 457.0, 588.0 ], [ 456.0, 588.0 ], [ 456.0, 599.0 ], [ 457.0, 599.0 ], [ 457.0, 653.0 ], [ 458.0, 653.0 ], [ 458.0, 658.0 ], [ 457.0, 658.0 ], [ 457.0, 691.0 ], [ 458.0, 691.0 ], [ 458.0, 693.0 ], [ 457.0, 693.0 ], [ 457.0, 696.0 ], [ 458.0, 696.0 ], [ 458.0, 710.0 ], [ 459.0, 710.0 ], [ 459.0, 724.0 ], [ 460.0, 724.0 ], [ 460.0, 736.0 ], [ 461.0, 736.0 ], [ 461.0, 742.0 ], [ 462.0, 742.0 ], [ 462.0, 747.0 ], [ 463.0, 747.0 ], [ 463.0, 749.0 ], [ 464.0, 749.0 ], [ 464.0, 758.0 ], [ 465.0, 758.0 ], [ 465.0, 771.0 ], [ 466.0, 771.0 ], [ 466.0, 785.0 ], [ 467.0, 785.0 ], [ 467.0, 796.0 ], [ 468.0, 796.0 ], [ 468.0, 809.0 ], [ 469.0, 809.0 ], [ 469.0, 821.0 ], [ 470.0, 821.0 ], [ 470.0, 829.0 ], [ 471.0, 829.0 ], [ 471.0, 842.0 ], [ 472.0, 842.0 ], [ 472.0, 853.0 ], [ 473.0, 853.0 ], [ 473.0, 862.0 ], [ 474.0, 862.0 ], [ 474.0, 865.0 ], [ 475.0, 865.0 ], [ 475.0, 866.0 ], [ 477.0, 866.0 ], [ 477.0, 865.0 ], [ 479.0, 865.0 ], [ 479.0, 863.0 ], [ 480.0, 863.0 ], [ 480.0, 852.0 ], [ 479.0, 852.0 ], [ 479.0, 838.0 ], [ 478.0, 838.0 ], [ 478.0, 832.0 ], [ 477.0, 832.0 ], [ 477.0, 819.0 ], [ 476.0, 819.0 ], [ 476.0, 807.0 ], [ 475.0, 807.0 ], [ 475.0, 795.0 ], [ 474.0, 795.0 ], [ 474.0, 783.0 ], [ 473.0, 783.0 ], [ 473.0, 774.0 ], [ 472.0, 774.0 ], [ 472.0, 758.0 ], [ 471.0, 758.0 ], [ 471.0, 750.0 ], [ 470.0, 750.0 ], [ 470.0, 746.0 ], [ 471.0, 746.0 ], [ 471.0, 745.0 ], [ 470.0, 745.0 ], [ 470.0, 726.0 ], [ 469.0, 726.0 ], [ 469.0, 716.0 ], [ 468.0, 716.0 ], [ 468.0, 708.0 ], [ 467.0, 708.0 ], [ 467.0, 695.0 ], [ 466.0, 695.0 ], [ 466.0, 691.0 ], [ 467.0, 691.0 ], [ 467.0, 689.0 ], [ 468.0, 689.0 ], [ 468.0, 687.0 ], [ 467.0, 687.0 ], [ 467.0, 684.0 ], [ 466.0, 684.0 ], [ 466.0, 682.0 ], [ 465.0, 682.0 ], [ 465.0, 680.0 ], [ 466.0, 680.0 ], [ 466.0, 679.0 ], [ 467.0, 679.0 ], [ 467.0, 677.0 ], [ 466.0, 677.0 ], [ 466.0, 675.0 ], [ 465.0, 675.0 ], [ 465.0, 672.0 ], [ 466.0, 672.0 ], [ 466.0, 670.0 ], [ 465.0, 670.0 ], [ 465.0, 646.0 ], [ 464.0, 646.0 ], [ 464.0, 636.0 ], [ 465.0, 636.0 ], [ 465.0, 633.0 ], [ 464.0, 633.0 ], [ 464.0, 617.0 ], [ 463.0, 617.0 ], [ 463.0, 616.0 ], [ 464.0, 616.0 ], [ 464.0, 594.0 ], [ 463.0, 594.0 ], [ 463.0, 587.0 ], [ 462.0, 587.0 ], [ 462.0, 586.0 ], [ 461.0, 586.0 ], [ 461.0, 585.0 ], [ 457.0, 585.0 ] ] ] } }
]
}
