{
"type": "FeatureCollection",
"name": "a2_segment_6211c6f1-a66f-4bab-9e22-6ea9cee2c7cf",
"features": [
{ "type": "Feature", "properties": { "value": 255.0 }, "geometry": { "type": "Polygon", "coordinates": [ [ [ 263.0, 179.0 ], [ 263.0, 180.0 ], [ 262.0, 180.0 ], [ 262.0, 181.0 ], [ 261.0, 181.0 ], [ 261.0, 186.0 ], [ 260.0, 186.0 ], [ 260.0, 198.0 ], [ 261.0, 198.0 ], [ 261.0, 199.0 ], [ 260.0, 199.0 ], [ 260.0, 243.0 ], [ 259.0, 243.0 ], [ 259.0, 274.0 ], [ 258.0, 274.0 ], [ 258.0, 280.0 ], [ 259.0, 280.0 ], [ 259.0, 281.0 ], [ 261.0, 281.0 ], [ 261.0, 282.0 ], [ 266.0, 282.0 ], [ 266.0, 281.0 ], [ 267.0, 281.0 ], [ 267.0, 280.0 ], [ 268.0, 280.0 ], [ 268.0, 271.0 ], [ 267.0, 271.0 ], [ 267.0, 270.0 ], [ 268.0, 270.0 ], [ 268.0, 265.0 ], [ 267.0, 265.0 ], [ 267.0, 233.0 ], [ 268.0, 233.0 ], [ 268.0, 232.0 ], [ 267.0, 232.0 ], [ 267.0, 229.0 ], [ 268.0, 229.0 ], [ 268.0, 225.0 ], [ 267.0, 225.0 ], [ 267.0, 220.0 ], [ 268.0, 220.0 ], [ 268.0, 219.0 ], [ 267.0, 219.0 ], [ 267.0, 216.0 ], [ 268.0, 216.0 ], [ 268.0, 194.0 ], [ 269.0, 194.0 ], [ 269.0, 190.0 ], [ 268.0, 190.0 ], [ 268.0, 182.0 ], [ 267.0, 182.0 ], [ 267.0, 180.0 ], [ 266.0, 180.0 ], [ 266.0, 179.0 ], [ 263.0, 179.0 ] ] ] } },
{ "type": "Feature", "properties": { "value": 255.0 }, "geometry": { "type": "Polygon", "coordinates": [ [ [ 352.0, 197.0 ], [ 352.0, 198.0 ], [ 349.0, 198.0 ], [ 349.0, 199.0 ], [ 348.0, 199.0 ], [ 348.0, 201.0 ], [ 349.0, 201.0 ], [ 349.0, 202.0 ], [ 348.0, 202.0 ], [ 348.0, 205.0 ], [ 349.0, 205.0 ], [ 349.0, 207.0 ], [ 348.0, 207.0 ], [ 348.0, 208.0 ], [ 349.0, 208.0 ], [ 349.0, 216.0 ], [ 348.0, 216.0 ], [ 348.0, 217.0 ], [ 349.0, 217.0 ], [ 349.0, 218.0 ], [ 348.0, 218.0 ], [ 348.0, 232.0 ], [ 349.0, 232.0 ], [ 349.0, 233.0 ], [ 348.0, 233.0 ], [ 348.0, 253.0 ], [ 347.0, 253.0 ], [ 347.0, 255.0 ], [ 348.0, 255.0 ], [ 348.0, 269.0 ], [ 349.0, 269.0 ], [ 349.0, 270.0 ], [ 348.0, 270.0 ], [ 348.0, 271.0 ], [ 349.0, 271.0 ], [ 349.0, 272.0 ], [ 350.0, 272.0 ], [ 350.0, 273.0 ], [ 349.0, 273.0 ], [ 349.0, 275.0 ], [ 351.0, 275.0 ], [ 351.0, 278.0 ], [ 349.0, 278.0 ], [ 349.0, 280.0 ], [ 348.0, 280.0 ], [ 348.0, 281.0 ], [ 349.0, 281.0 ], [ 349.0, 283.0 ], [ 348.0, 283.0 ], [ 348.0, 315.0 ], [ 350.0, 315.0 ], [ 350.0, 314.0 ], [ 351.0, 314.0 ], [ 351.0, 311.0 ], [ 352.0, 311.0 ], [ 352.0, 294.0 ], [ 353.0, 294.0 ], [ 353.0, 293.0 ], [ 354.0, 293.0 ], [ 354.0, 289.0 ], [ 353.0, 289.0 ], [ 353.0, 288.0 ], [ 352.0, 288.0 ], [ 352.0, 282.0 ], [ 353.0, 282.0 ], [ 353.0, 281.0 ], [ 354.0, 281.0 ], [ 354.0, 277.0 ], [ 355.0, 277.0 ], [ 355.0, 269.0 ], [ 354.0, 269.0 ], [ 354.0, 255.0 ], [ 355.0, 255.0 ], [ 355.0, 251.0 ], [ 354.0, 251.0 ], [ 354.0, 248.0 ], [ 355.0, 248.0 ], [ 355.0, 247.0 ], [ 354.0, 247.0 ], [ 354.0, 239.0 ], [ 355.0, 239.0 ], [ 355.0, 236.0 ], [ 354.0, 236.0 ], [ 354.0, 223.0 ], [ 355.0, 223.0 ], [ 355.0, 222.0 ], [ 354.0, 222.0 ], [ 354.0, 220.0 ], [ 355.0, 220.0 ], [ 355.0, 201.0 ], [ 356.0, 201.0 ], [ 356.0, 199.0 ], [ 355.0, 199.0 ], [ 355.0, 198.0 ], [ 354.0, 198.0 ], [ 354.0, 197.0 ], [ 352.0, 197.0 ] ] ] } }
]
}
