{
"type": "FeatureCollection",
"name": "a3_segment_77303f97-b969-48ae-b9dc-25ea381bd930",
"features": [
{ "type": "Feature", "properties": { "value": 255.0 }, "geometry": { "type": "Polygon", "coordinates": [ [ [ 960.0, 4.0 ], [ 960.0, 6.0 ], [ 959.0, 6.0 ], [ 959.0, 37.0 ], [ 960.0, 37.0 ], [ 960.0, 74.0 ], [ 959.0, 74.0 ], [ 959.0, 104.0 ], [ 970.0, 104.0 ], [ 970.0, 103.0 ], [ 971.0, 103.0 ], [ 971.0, 101.0 ], [ 970.0, 101.0 ], [ 970.0, 98.0 ], [ 969.0, 98.0 ], [ 969.0, 96.0 ], [ 968.0, 96.0 ], [ 968.0, 91.0 ], [ 967.0, 91.0 ], [ 967.0, 86.0 ], [ 968.0, 86.0 ], [ 968.0, 84.0 ], [ 967.0, 84.0 ], [ 967.0, 74.0 ], [ 966.0, 74.0 ], [ 966.0, 72.0 ], [ 967.0, 72.0 ], [ 967.0, 71.0 ], [ 966.0, 71.0 ], [ 966.0, 68.0 ], [ 967.0, 68.0 ], [ 967.0, 61.0 ], [ 966.0, 61.0 ], [ 966.0, 51.0 ], [ 967.0, 51.0 ], [ 967.0, 43.0 ], [ 966.0, 43.0 ], [ 966.0, 6.0 ], [ 965.0, 6.0 ], [ 965.0, 4.0 ], [ 960.0, 4.0 ] ] ] } },
{ "type": "Feature", "properties": { "value": 255.0 }, "geometry": { "type": "Polygon", "coordinates": [ [ [ 420.0, 0.0 ], [ 420.0, 5.0 ], [ 419.0, 5.0 ], [ 419.0, 7.0 ], [ 420.0, 7.0 ], [ 420.0, 8.0 ], [ 419.0, 8.0 ], [ 419.0, 14.0 ], [ 420.0, 14.0 ], [ 420.0, 16.0 ], [ 419.0, 16.0 ], [ 419.0, 24.0 ], [ 418.0, 24.0 ], [ 418.0, 29.0 ], [ 417.0, 29.0 ], [ 417.0, 32.0 ], [ 416.0, 32.0 ], [ 416.0, 33.0 ], [ 417.0, 33.0 ], [ 417.0, 34.0 ], [ 418.0, 34.0 ], [ 418.0, 36.0 ], [ 417.0, 36.0 ], [ 417.0, 38.0 ], [ 418.0, 38.0 ], [ 418.0, 40.0 ], [ 419.0, 40.0 ], [ 419.0, 48.0 ], [ 418.0, 48.0 ], [ 418.0, 50.0 ], [ 419.0, 50.0 ], [ 419.0, 66.0 ], [ 418.0, 66.0 ], [ 418.0, 70.0 ], [ 417.0, 70.0 ], [ 417.0, 78.0 ], [ 418.0, 78.0 ], [ 418.0, 88.0 ], [ 417.0, 88.0 ], [ 417.0, 89.0 ], [ 418.0, 89.0 ], [ 418.0, 95.0 ], [ 417.0, 95.0 ], [ 417.0, 101.0 ], [ 418.0, 101.0 ], [ 418.0, 107.0 ], [ 419.0, 107.0 ], [ 419.0, 116.0 ], [ 420.0, 116.0 ], [ 420.0, 117.0 ], [ 421.0, 117.0 ], [ 421.0, 118.0 ], [ 424.0, 118.0 ], [ 424.0, 117.0 ], [ 426.0, 117.0 ], [ 426.0, 116.0 ], [ 427.0, 116.0 ], [ 427.0, 113.0 ], [ 428.0, 113.0 ], [ 428.0, 110.0 ], [ 427.0, 110.0 ], [ 427.0, 101.0 ], [ 426.0, 101.0 ], [ 426.0, 94.0 ], [ 427.0, 94.0 ], [ 427.0, 93.0 ], [ 426.0, 93.0 ], [ 426.0, 91.0 ], [ 427.0, 91.0 ], [ 427.0, 90.0 ], [ 426.0, 90.0 ], [ 426.0, 58.0 ], [ 427.0, 58.0 ], [ 427.0, 48.0 ], [ 426.0, 48.0 ], [ 426.0, 47.0 ], [ 424.0, 47.0 ], [ 424.0, 38.0 ], [ 425.0, 38.0 ], [ 425.0, 33.0 ], [ 424.0, 33.0 ], [ 424.0, 31.0 ], [ 425.0, 31.0 ], [ 425.0, 20.0 ], [ 424.0, 20.0 ], [ 424.0, 17.0 ], [ 425.0, 17.0 ], [ 425.0, 15.0 ], [ 426.0, 15.0 ], [ 426.0, 8.0 ], [ 427.0, 8.0 ], [ 427.0, 2.0 ], [ 426.0, 2.0 ], [ 426.0, 1.0 ], [ 425.0, 1.0 ], [ 425.0, 0.0 ], [ 420.0, 0.0 ] ] ] } }
]
}
